School Name,Type,Number,Address,Borough,State,Zip,Building Code,x,y
P233Q@42,P (District 75),233,488 Beach 66th St,Arverne ,NY,11692,,-73.79506,40.5943457
PS811Q@ Queens High School of Teaching,PS,811,74-20 Commonwealth Blvd.,Bellerose,NY,11426,Q811,-73.718058,40.72576275
New York City Children's Center - Queens,P (District 75),23,74-03 Commonwealth Boulevard,Bellerose,NY,11426,,-73.718058,40.72576275
,PS,76,770 GROTE STREET,BRONX,NY,10460,X034,-73.88368634,40.8502491
Jonathan D. Hyatt,PS,154,333 EAST 135th STREET,BRONX,NY,10454,X154,-73.9257835,40.80825105
Bronx International High School,HS,403,1110 BOSTON ROAD,BRONX,NY,10456,X400,-73.9045098,40.8273033
Family Life Academy Charter School II,Charter,233,296 EAST 140th STREET,BRONX,NY,10454,XAGV,-73.924656,40.811457
Lucero Elementary School,PS,311,1425 WALTON AVENUE,BRONX,NY,10452,X064,-73.91575951,40.84031025
Bronx Academy of Promise Charter School,Charter,419,1349 INWOOD AVENUE,BRONX,NY,10452,XASK,-73.92000173,40.83961455
Bronx Lighthouse Charter School,Charter,185,1001 INTERVALE AVENUE,BRONX,NY,10459,X716,-73.89739093,40.8232106
Francisco Oller,PS,61,1550 CROTONA PARK EAST,BRONX,NY,10460,X061,-73.89285904,40.83634215
Claremont,PS,42,1537 WASHINGTON AVENUE,BRONX,NY,10457,X042,-73.9031078,40.8385989
Sedgwick,PS,109,1771 POPHAM AVENUE,BRONX,NY,10453,X109,-73.9186312,40.8515299
Samuel Gompers Career and Technical Education High School,HS,655,455 Southern Blvd,Bronx,NY,10455,X655,-73.9031396,40.8122526
The Urban Assembly Bronx Academy of Letters,HS,551,339 MORRIS AVENUE,BRONX,NY,10451,X183,-73.9260636,40.8136235
"Harlem Renaissance High School

",IS,177,1260 FRANKLIN AVENUE,BRONX,NY,10456,X862,-73.90218038,40.8309906
Crotona Academy High School,HS,321,639 ST. ANNS AVENUE,BRONX,NY,10455,X963,-73.91181523,40.81721865
Comprehensive Model School Project M.S. 327,MS/HS,327,1501 JEROME AVENUE,BRONX,NY,10452,X240,-73.916202,40.842483
Mount Eden Children's Academy,PS,555,1501 JEROME AVENUE,BRONX,NY,10452,X240,-73.916202,40.842483
Mott Haven Academy Charter School,IS,394,170 BROWN PLACE,BRONX,NY,10454,XASK,-73.92088528,40.80631085
,PS,306,40 WEST TREMONT AVENUE,BRONX,NY,10453,X306,-73.91080183,40.8513498
Luisa Dessus Cruz,MS,302,681 KELLY STREET,BRONX,NY,10455,X052,-73.9017701,40.8156756
Arturo A. Schomburg Satellite Academy Bronx,HS,446,1010 Reverend James A. POLITE AVENUE,BRONX,NY,10459,X401,-73.89856605,40.82320465
The Family School,PS,443,1116 SHERIDAN AVENUE,BRONX,NY,10456,X090,-73.91762748,40.83205015
Bronx Leadership Academy High School,HS,525,1710 WEBSTER AVENUE,BRONX,NY,10457,X876,-73.9028966,40.8433249
Success Academy Charter School - Bronx 2,PS,494,450 SAINT PAUL'S PLACE,BRONX,NY,10456,X055,-73.90519889,40.8358801
Bronx High School for Medical Science,HS,413,240 EAST 172nd STREET,BRONX,NY,10457,X410,-73.9117451,40.83944
Bronx High School of Business,HS,412,240 EAST 172nd STREET,BRONX,NY,10457,X410,-73.9117451,40.83944
University Heights Secondary School,HS,495,701 ST. ANNS AVENUE,BRONX,NY,10455,X470,-73.9111832,40.8183204
The William Lloyd Garrison,PS/MS,31,250 EAST 156th STREET,BRONX,NY,10451,X151,-73.9213414,40.8226809
Benjamin Franklin,CS,55,450 St. Paul's Place,Bronx,NY,10456,X055,-73.90519889,40.8358801
Inocensio Casanova,PS,62,660 FOX STREET,BRONX,NY,10455,X062,-73.9002559,40.8139737
Jonas Bronck,PS,43,165 BROWN PLACE,BRONX,NY,10454,X043,-73.92194,40.80639
Fannie Lou Hamer Freedom High School,HS,682,1021 JENNINGS STREET,BRONX,NY,10460,X878,-73.8861146,40.8309293
Academy for Career and Living Skills,PS,811,1434 LONGFELLOW AVENUE,BRONX,NY,10459,X084,-73.88757036,40.83042102
,PS,10,2750 LAFAYETTE AVENUE,BRONX,NY,10465,X101,-73.8294928,40.8269911
The Wilton School,PS,30,510 EAST 141st STREET,BRONX,NY,10454,X030,-73.91778,40.80917
KIPP Academy Charter School,Charter,704,250 EAST 156th STREET,BRONX,NY,10451,X151,-73.9213414,40.8226809
Rafael Hernandez Dual Language Magnet School,PS/IS,218,1220 GERARD AVENUE,BRONX,NY,10452,X235,-73.91960128,40.8356532
Family Life Academy Charter School,Charter,705,14 WEST 170th STREET,BRONX,NY,10452,XABC,-73.91866275,40.84026825
,PS,17,778 FOREST AVENUE,BRONX,NY,10456,X184,-73.9050629,40.8188475
Grant Avenue Elementary School,PS,449,250 EAST 164th STREET,BRONX,NY,10456,X166,-73.9176546,40.82809765
The New Children's School,PS,23,2151 WASHINGTON AVENUE,BRONX,NY,10457,X023,-73.89477858,40.8533433
Willis Avenue,PS,49,383 EAST 139th STREET,BRONX,NY,10454,X049,-73.9228849,40.8098698
School of Performing Arts,IS,217,977 FOX STREET,BRONX,NY,10459,X116,-73.89438417,40.82207005
Girls Preparatory Charter School of the Bronx,Charter,487,681 KELLY STREET,BRONX,NY,10455,X052,-73.9017701,40.8156756
Arturo Toscanini,MS,145,1000 TELLER AVENUE,BRONX,NY,10456,X145,-73.914175,40.8278917
Crescent,PS,57,2111 CROTONA AVENUE,BRONX,NY,10457,X057,-73.88897996,40.8486781
New York City Montessori Charter School,Charter,554,423 East 138th Street,Bronx,NY,10454,XAFI,-73.92170306,40.80892555
Performance School,Charter,385,750 CONCOURSE VILLAGE WEST,BRONX,NY,10451,X156,-73.922637,40.8231562
,CS,211,1919 PROSPECT AVENUE,BRONX,NY,10457,X193,-73.89050181,40.84381285
Bronx Collegiate Academy,HS,227,240 EAST 172nd STREET,BRONX,NY,10457,X410,-73.9117451,40.83944
Frederick Douglass Academy V. Middle School,MS,273,2111 CROTONA AVENUE,BRONX,NY,10457,X057,-73.88897996,40.8486781
John Peter Zenger,PS,18,502 MORRIS AVENUE,BRONX,NY,10451,X018,-73.92228613,40.8162146
School for Environmental Citizenship,PS,386,125 EAST 181st STREET,BRONX,NY,10453,X079,-73.90297072,40.8552133
DreamYard Preparatory School,HS,329,240 EAST 172nd STREET,BRONX,NY,10457,X410,-73.9117451,40.83944
School of Higher Expectations,PS,66,1001 JENNINGS STREET,BRONX,NY,10460,X066,-73.8867249,40.8312159
Academy for Language and Technology,HS,365,1700 MACOMBS ROAD,BRONX,NY,10453,X082,-73.9156114,40.8494748
,PS,226,1950 SEDGWICK AVENUE,BRONX,NY,10453,X826,-73.9161612,40.8559715
Joseph R. Drake,PS,48,1290 SPOFFORD AVENUE,BRONX,NY,10474,X048,-73.88693863,40.8141191
Author's Academy,PS,63,1260 FRANKLIN AVENUE,BRONX,NY,10456,X063,-73.90218038,40.8309906
Baychester Middle School,MS,532,3750 BAYCHESTER AVENUE,BRONX,NY,10466,X142,-73.8405189,40.8863354
High School for Energy and Technology,HS,565,2474 CROTONA AVENUE,BRONX,NY,10458,X660,-73.8825,40.8552778
Henry Hudson,JHS,125,1111 PUGSLEY AVENUE,BRONX,NY,10472,X125,-73.85770918,40.8292012
The New School for Leadership and Journalism,MS,244,120 WEST 231st STREET,BRONX,NY,10463,X143,-73.90172355,40.8756121
East Fordham Academy for the Arts,MS,459,120 EAST 184th STREET,BRONX,NY,10468,X115,-73.9000991,40.8595871
Pelham Gardens Middle School,MS,566,2545 GUNTHER AVENUE,BRONX,NY,10469,X144,-73.8363933,40.8641956
City Island,PS,175,200 CITY ISLAND AVENUE,BRONX,NY,10464,X175,-73.78476732,40.84380205
Dr. Selman Waksman,PS,178,850 BAYCHESTER AVENUE,BRONX,NY,10475,X178,-73.83309185,40.8751536
,PS/IS,54,2703 WEBSTER AVENUE,BRONX,NY,10458,X054,-73.88779013,40.86490695
Concourse Village Elementary School,PS,359,750 CONCOURSE VILLAGE WEST,BRONX,NY,10451,X156,-73.922637,40.8231562
Renaissance High School for Musical Theater & Technology,HS,293,3000 EAST TREMONT AVENUE,BRONX,NY,10461,X405,-73.83915786,40.8399325
Tech International Charter School,Charter,258,3120 Corlear Avenue,Bronx,NY,10463,XAFJ,-73.9069949,40.8806903
"The Marie Curie School for Medicine, Nursing, and Health Professions",HS,237,120 WEST 231st STREET,BRONX,NY,10463,X143,-73.90172355,40.8756121
Bronx Charter School for Better Learning,Charter,718,3740 BAYCHESTER AVENUE,BRONX,NY,10466,X937,-73.83968408,40.8841708
DeWitt Clinton High School,HS,440,100 WEST MOSHOLU PARKWAY SOUTH,BRONX,NY,10468,X440,-73.88733898,40.8813165
The Equality Charter School,Charter,488,4140 HUTCHINSON RIVER PARKWAY E,BRONX,NY,10475,X160,-73.8242406,40.8643916
Herbert H. Lehman High School,HS,405,3000 EAST TREMONT AVENUE,BRONX,NY,10461,X405,-73.83915786,40.8399325
Jonathan Levin High School for Media and Communications,HS,414,240 EAST 172nd STREET,BRONX,NY,10457,X410,-73.9117451,40.83944
The Bronx School of Young Leaders,MS,331,40 WEST TREMONT AVENUE,BRONX,NY,10453,X306,-73.91080183,40.8513498
Mott Hall V,HS,242,1551 EAST 172ND STREET,BRONX,NY,10472,X423,-73.8781016,40.8316075
Isaac Clason,PS,100,800 TAYLOR AVENUE,BRONX,NY,10473,X100,-73.8629334,40.8218601
,PS,207,3030 GODWIN TERRACE,BRONX,NY,10463,X819,-73.90629358,40.8782743
,PS,97,1375 MACE AVENUE,BRONX,NY,10469,X097,-73.84656003,40.86317265
"P.O.George J. Werdann, III",PS/MS,20,3050 WEBSTER AVENUE,BRONX,NY,10467,X020,-73.87909179,40.86960985
Urban Assembly Academy of Civic Engagement,MS,366,650 HOLLYWOOD AVENUE,BRONX,NY,10465,X192,-73.8186464,40.8270464
Stephen McSweeney School,PS,721,2697 WESTCHESTER AVENUE,BRONX,NY,10461,X722,-73.83890824,40.84276505
School for Excellence,HS,404,1110 Boston Road,Bronx,NY,10456,x400,-73.9045098,40.8273033
Bronx Lab School,HS,265,800 EAST GUN HILL ROAD,BRONX,NY,10467,X425,-73.8614234,40.8755487
Spuyten Duyvil,PS,24,660 WEST 236th STREET,BRONX,NY,10463,X024,-73.91432665,40.8868453
@Byron,P (District 75),723,3540 BIVONA STREET,BRONX,NY,10475,X701,-73.8325016,40.8828711
Bronx Writing Academy,MS,323,270 EAST 167th STREET,BRONX,NY,10456,X022,-73.91418206,40.8322453
Roland Patterson,IS,229,275 HARLEM RIVER PARK BRIDGE,BRONX,NY,10453,X229,-73.9212701,40.8526349
"H.E.R.O. High (Health, Education, and Research Occupations High School)",HS,259,455 SOUTHERN BLVD,BRONX,NY,10455,X655,-73.9031396,40.8122526
Journey Prep School,PS,69,560 THIERIOT AVENUE,BRONX,NY,10473,X069,-73.860767,40.8168351
Truman High School,PS,176,850 BAYCHESTER AVENUE,BRONX,NY,10475,X178,-73.83309185,40.8751536
J. M. Rapport School Career Development,HS,754,470 JACKSON AVENUE,BRONX,NY,10455,X155,-73.9095186,40.811201
Abram Stevens Hewitt,PS,130,750 PROSPECT AVENUE,BRONX,NY,10455,X130,-73.90199761,40.8178042
Belmont,PS,32,690 EAST 183rd STREET,BRONX,NY,10458,X032,-73.886384,40.852243
Astor Collegiate Academy,HS,299,925 ASTOR AVENUE,BRONX,NY,10469,X415,-73.8603222,40.8598996
Young Leaders Elementary School,PS,369,468 EAST 140th STREET,BRONX,NY,10454,X040,-73.92034587,40.8092059
Bilingual School,PS,25,811 EAST 149th STREET,BRONX,NY,10455,X025,-73.9057289,40.8127066
Courtlandt School,PS,1,335 EAST 152nd STREET,BRONX,NY,10451,X001,-73.91924959,40.8192308
The Vida Bogart School for All Children,PS,352,1330 BRISTOW STREET,BRONX,NY,10459,X834,-73.89457117,40.8315475
Cornerstone Academy for Social Action,PS,189,3441 STEENWICK AVENUE,BRONX,NY,10475,X189,-73.83081442,40.88307455
Donald Hertz,PS,83,950 RHINELANDER AVENUE,BRONX,NY,10462,X083,-73.85903699,40.8491705
,PS/MS,89,980 MACE AVENUE,BRONX,NY,10469,X089,-73.85945168,40.8625411
Garret A. Morgan,PS,132,1245 WASHINGTON AVENUE,BRONX,NY,10456,X132,-73.90664429,40.83194842
Robert J. Christen,PS,81,5550 RIVERDALE AVENUE,BRONX,NY,10471,X081,-73.90487888,40.90350905
P186X @140,"PS/MS
",186,750 JENNINGS STREET,BRONX,NY,10459,X136,-73.8981335,40.8317254
Bronx Collaborative High School,HS,351,100 WEST MOSHOLU PARKWAY SOUTH,BRONX,NY,10468,X440,-73.88733898,40.8813165
Urban Science Academy,MS,325,1000 TELLER AVENUE,BRONX,NY,10456,X145,-73.914175,40.8278917
New Visions Charter High School for Advanced Math and Science II,HS,202,900 TINTON AVENUE,BRONX,NY,10456,X650,-73.90265607,40.8217383
,PS,396,1930 ANDREWS AVENUE S,BRONX,NY,10453,X026,-73.91290787,40.8543543
The Highbridge Green School,IS,361,200 West 167th Street,BRONX,NY,10452,X285,-73.928298,40.838857
Academy for Scholarship and Entrepreneurship: A College Board School,HS,270,921 EAST 228TH STREET,BRONX,NY,10466,X362,-73.8527657,40.8882399
Collegiate Institute for Math and Science,HS,288,925 ASTOR AVENUE,BRONX,NY,10469,X415,-73.8603222,40.8598996
The Urban Assembly Academy for History and Citizenship for Young Men,HS,,240 East 172nd Street,Bronx,NY,10457,X410,-73.9117451,40.83944
Throop,PS,121,2750 THROOP AVENUE,BRONX,NY,10469,X121,-73.8508015,40.8669955
Bronx Design and Construction Academy,HS,522,333 EAST 151st STREET,BRONX,NY,10451,X600,-73.92029127,40.81862835
,PS,188,770 GROTE STREET,BRONX,NY,10460,X034,-73.88368634,40.8502491
Jordan L. Mott,MS,22,270 EAST 167th STREET,BRONX,NY,10456,X022,-73.91418206,40.8322453
,PS,277,519 ST ANNS AVENUE,BRONX,NY,10455,X027,-73.91376677,40.8133767
Bronx Haven High School,HS,381,333 EAST 151st STREET,BRONX,NY,10451,X600,-73.92029127,40.81862835
Urban Assembly School for Careers in Sports,HS,548,730 CONCOURSE VILLAGE WEST,BRONX,NY,10451,X790,-73.9229433,40.8224316
Rose E. Scala,PS,71,3040 ROBERTS AVENUE,BRONX,NY,10461,X071,-73.82931931,40.8454243
Albert G. Oliver,PS,93,1535 STORY AVENUE,BRONX,NY,10473,X093,-73.8772613,40.8219636
,PS,107,1695 SEWARD AVENUE,BRONX,NY,10473,X107,-73.8684277,40.81886285
Longwood Academy of Discovery,PS,333,888 Reverend James A POLITE AVE,BRONX,NY,10459,X060,-73.89885245,40.82037221
The Academy of the Arts,,335,888 Reverend James A POLITE AVE,BRONX,NY,10459,X060,-73.89885245,40.82037221
The Hunts Point School,PS,424,730 BRYANT AVENUE,BRONX,NY,10474,X074,-73.8853425,40.8163123
Crotona Park West,PS,4,1701 FULTON AVENUE,BRONX,NY,10457,X004,-73.89868383,40.8412244
Highbridge,PS,11,1257 OGDEN AVENUE,BRONX,NY,10452,X011,-73.92581264,40.83971525
Franz Siegel,PS,35,261 EAST 163rd STREET,BRONX,NY,10451,X035,-73.9194222,40.8278524
Dr Marjorie H Dunbar,PS,126,175 WEST 166th STREET,BRONX,NY,10452,X126,-73.92860733,40.83643765
Arthur A. Schomburg,PS,163,2075 WEBSTER AVENUE,BRONX,NY,10457,X163,-73.89880607,40.85179195
The Walton Avenue School,,294,1425 WALTON AVENUE,BRONX,NY,10452,X064,-73.91575951,40.84031025
School for Excellence,,404,1110 BOSTON ROAD,BRONX,NY,10456,X400,-73.9045098,40.8273033
"Bronx School for Law, Government and Justice",,505,244 EAST 163rd STREET,BRONX,NY,10451,X460,-73.91902696,40.8274856
High School for Violin and Dance,HS,543,1110 BOSTON ROAD,BRONX,NY,10456,X400,-73.9045098,40.8273033
Ryer Avenue Elementary School,PS,9,230 EAST 183rd STREET,BRONX,NY,10458,X009,-73.8925,40.854975
Edgar Allan Poe,PS,46,279 EAST 196th STREET,BRONX,NY,10458,X046,-73.8906272,40.8669497
Norwood Heights,PS,56,3177 WEBSTER AVENUE,BRONX,NY,10467,X177,-73.87554625,40.87250075
Bedford Park Elementary School,,77,3177 WEBSTER AVENUE,BRONX,NY,10467,X177,-73.87554625,40.87250075
Kingsbridge Heights,PS,86,2756 RESERVOIR AVENUE,BRONX,NY,10468,X086,-73.8982072,40.8700236
Kings College School,PS,94,3530 KINGS COLLEGE PLACE,BRONX,NY,10467,X094,-73.87543167,40.8805419
Theatre Arts Production Company School (TAPCo),,225,2225 WEBSTER AVENUE,BRONX,NY,10457,X137,-73.89718039,40.8544561
ACADEMY FOR PERSONAL LEADERSHIP AND EXCELLENCE,PS,363,120 EAST 184th STREET,BRONX,NY,10468,X115,-73.9000991,40.8595871
Bronx High School of Science,HS,445,75 WEST 205th STREET,BRONX,NY,10468,X445,-73.89095497,40.8783886
Public School 68 ,PS,68,4011 MONTICELLO AVENUE,BRONX,NY,10466,X068,-73.83864335,40.8914193
Richard Rodgers,PS,96,650 WARING AVENUE,BRONX,NY,10467,X096,-73.8691991,40.86083925
Sen Abraham Bernstein,PS,105,725 BRADY AVENUE,BRONX,NY,10462,X105,-73.8664476,40.8525851
The Castle Hill,MS/HS,127,1560 PURDY STREET,BRONX,NY,10462,X127,-73.85298297,40.8385381
Cornerstone Academy for Social Action Middle School (CASA),MS,462,3441 STEENWICK AVENUE,BRONX,NY,10475,X189,-73.83081442,40.88307455
Linden Tree Elementary School,PS,567,1560 PURDY STREET,BRONX,NY,10462,X127,-73.85298297,40.8385381
West Farms,PS,6,1000 EAST TREMONT AVENUE,BRONX,NY,10460,X006,-73.8823163,40.8407678
Fairmont Neighborhood School,,314,1550 VYSE AVENUE,BRONX,NY,10460,X050,-73.88709645,40.8341791
Samara Community School,PS,458,1550 VYSE AVENUE,BRONX,NY,10460,X050,-73.88709645,40.8341791
,PS,536,1827 ARCHER STREET,BRONX,NY,10460,X102,-73.86579041,40.83810565
Lewis and Clark School,PS,12,2555 TRATMAN AVENUE,BRONX,NY,10461,X012,-73.8442489,40.8404261
Family Life Academy Charter School III,Charter,472,296 EAST 140th STREET,BRONX,NY,10454,XAGV,-73.924656,40.811457
Dr. Richard Izquierdo Health and Science Charter School,HS,482,800 HOME STREET,BRONX,NY,10456,X158,-73.900672,40.8277475
Bronx Preparatory Charter School,,703,3872 THIRD AVENUE,BRONX,NY,10457,XAFP,-73.9177671,40.8159853
@Ittleson Day Treatment ,P (District 75),723,5050 Iselin Ave,Bronx,NY,10471,,-73.90495786,40.8993398
Walter Damrosch School,P (District 75),186,750 Jennings Street,Bronx,NY,10459,X136,-73.8981335,40.8317254
@855 The Bronx School for Continuous Learners,P (District 75),469,577 East 139th Street,Bronx,NY,10454,X855,-73.91628041,40.80742475
Bronxworks,Pre-K,,1130 Grand Concourse,Bronx,NY,10456,,-73.9189758,40.8324748
PS 188x@HS790x,PS,188,730 Concourse Village West,Bronx,NY,10451,,-73.9229433,40.8224316
@ Monroe Annex,P (District 75),721,1551 East 172nd Street,Bronx,NY,10472,,-73.8781016,40.8316075
,PS,76,770 GROTE STREET,BRONX,NY,10460,X034,-73.88368634,40.8502491
,PS,76,770 GROTE STREET,BRONX,NY,10460,X034,-73.88368634,40.8502491
P721X@P368X,P (District 75),721,2975 Tibbett Avenue,Bronx,NY,10463,,-73.91119022,40.8790528
Luis Llorens Elementary School,PS,114,1155 Cromwell Avenue,BRONX,NY,10452,X114,-73.92316218,40.83509695
723@189,P (District 75),723,3441 Steenwick Avenue,Bronx,NY,10475,,-73.83081442,40.88307455
,PS,595,"700 East 179th Street

",Bronx,NY,10457,,-73.85990043,40.82696543
,PS,583,1028 White Plains Road,Bronx,NY,10472,,-73.90413337,40.84066185
School of Continuous Learners @ 339X,P (District 75),469,1600 Webster Avenue,Bronx,NY,10457,,-73.92026501,40.83284525
Mid Bronx CCRP Head Start - Grand Concourse,Pre-K,,1125 Grand Concourse,Bronx,NY,10452,,-73.9223598,40.81851302
Sheltering Arms Children and Family Services,Pre-K,,565 Morris Avenue,Bronx,NY,10451,,-73.9323979,40.7014771
Andrew Jackson,PS,145,100 NOLL STREET,BROOKLYN,NY,11206,K145,-73.908228,40.6933246
Lyndon B. Johnson,PS,151,763 KNICKERBOCKER AVENUE,BROOKLYN,NY,11207,K151,-73.8743623,40.66993855
James P. Sinnott,JHS,218,370 FOUNTAIN AVENUE,BROOKLYN,NY,11208,K218,-73.9197565,40.6728542
Ronald Edmonds Learning Center II,MS,484,430 HOWARD AVENUE,BROOKLYN,NY,11233,K012,-73.89513674,40.6669096
World Academy for Total Community Health High School,HS,510,400 PENNSYLVANIA AVENUE,BROOKLYN,NY,11207,K435,-73.87654195,40.6660538
Ernest S. Jenkyns,PS/MS,202,982 HEGEMAN AVENUE,BROOKLYN,NY,11208,K202,-73.9158351,40.67823125
Eagle Academy for Young Men II,MS/HS,644,1137 HERKIMER STREET,BROOKLYN,NY,11233,K271,-73.88629143,40.6551941
Ethan Allen,PS,306,970 VERMONT STREET,BROOKLYN,NY,11207,K306,-73.91370467,40.65993395
Riverdale Avenue Community School,PS,446,76 RIVERDALE AVENUE,BROOKLYN,NY,11212,K183,-73.90485092,40.66025125
Newport,PS,184,273 NEWPORT STREET,BROOKLYN,NY,11212,K184,-73.91097614,40.6571849
Ida Posner,PS,165,76 LOTT AVENUE,BROOKLYN,NY,11212,K165,-73.91673619,40.68227815
Rachel Jean Mitchell,PS/IS,137,121 SARATOGA AVENUE,BROOKLYN,NY,11233,K137,-73.94071491,40.6914756
Eubie Blake School,PS,25,787 LAFAYETTE AVENUE,BROOKLYN,NY,11221,K025,-73.9239754,40.666194
Brownsville Academy High School,HS,568,1150 EAST NEW YORK AVENUE,BROOKLYN,NY,11212,K907,-73.9195423,40.6977934
Achievement First Bushwick Charter School,Charter,538,1300 GREENE AVENUE,BROOKLYN,NY,11237,K383,-73.90705321,40.6601813
Francis White,PS/IS,41,411 THATFORD AVENUE,BROOKLYN,NY,11212,K041,-73.88669292,40.6777282
Cypress Hills,PS/IS,89,265 WARWICK STREET,BROOKLYN,NY,11207,K814,-73.92080622,40.6884868
Brooklyn High School for Law and Technology,HS,498,1396 BROADWAY,BROOKLYN,NY,11221,K987,-73.92996974,40.68304795
El Hajj Malik El Shabazz Elementary School,PS,262,500 MACON STREET,BROOKLYN,NY,11233,K262,-73.91494014,40.6937556
Alejandrina B. De Gautier,PS,377,200 WOODBINE STREET,BROOKLYN,NY,11221,K377,-73.8927571,40.669348
Danny Kaye,PS,149,700 SUTTER AVENUE,BROOKLYN,NY,11207,K149,-73.92114271,40.6931645
Mayda Cortiella,PS,75,95 GROVE STREET,BROOKLYN,NY,11221,K075,-73.945277,40.6991494
Brooklyn Transition Center,PS,373,185 ELLERY STREET,BROOKLYN,NY,11206,K148,-73.9583387,40.6925521
Brooklyn High School for Leadership and Community Service,HS,616,300 WILLOUGHBY AVENUE,BROOKLYN,NY,11205,K117,-73.9113818,40.6970899
Academy for Environmental Leadership,HS,403,400 IRVING AVENUE,BROOKLYN,NY,11237,K480,-73.9158351,40.67823125
Mott Hall IV,MS,522,1137 HERKIMER STREET,BROOKLYN,NY,11233,K271,-73.9225745,40.7039049
Suydam,PS,123,100 IRVING AVENUE,BROOKLYN,NY,11237,K123,-73.86324332,40.67602355
Michael Friedsam,PS,214,2944 PITKIN AVENUE,BROOKLYN,NY,11208,K214,-73.90771966,40.67102145
Dr. Betty Shabazz,PS,298,85 WATKINS STREET,BROOKLYN,NY,11212,K298,-73.93166374,40.67889925
Boys and Girls High School,HS,455,1700 FULTON STREET,BROOKLYN,NY,11213,K455,-73.91033179,40.6889134
Evergreen Middle School for Urban Exploration,IS,562,125 COVERT STREET,BROOKLYN,NY,11207,K296,-73.91146394,40.66625475
,PS/IS,323,210 CHESTER STREET,BROOKLYN,NY,11212,K263,-73.9583387,40.6925521
"Brooklyn Community High School of Communication, Arts and Media",HS,412,300 WILLOUGHBY AVENUE,BROOKLYN,NY,11205,K117,-73.9455967,40.68191795
140@258,PS,140,141 MACON STREET,BROOKLYN,NY,11216,K258,-73.94348646,40.6975041
William Floyd,PS,59,211 THROOP AVENUE,BROOKLYN,NY,11206,K059,-73.90398805,40.67751765
Aspirations Diploma Plus High School,HS,646,1495 HERKIMER STREET,BROOKLYN,NY,11233,K894,-73.87313339,40.68932475
Abraham Lincoln,PS,7,858 JAMAICA AVENUE,BROOKLYN,NY,11208,K007,-73.87837563,40.68689145
,PS,65,696 JAMAICA AVENUE,BROOKLYN,NY,11208,K798,-73.920248,40.6983431
,PS,376,194 HARMAN STREET,BROOKLYN,NY,11237,K376,-73.9475228,40.6846677
Bedford Stuyvesant Preparatory High School,HS,575,832 MARCY AVENUE,BROOKLYN,NY,11216,K458,-73.86907526,40.6930081
Cypress Hills Collegiate Preparatory School,HS,659,999 JAMAICA AVENUE,BROOKLYN,NY,11208,K420,-73.9673117,40.5803987
Abraham Lincoln High School,HS,410,2800 OCEAN PARKWAY,BROOKLYN,NY,11235,K410,-73.9582574,40.6495043
Academy for College Preparation and Career Exploration: A College Board School,MS/HS,382,911 FLATBUSH AVENUE,BROOKLYN,NY,11226,K465,-73.95340052,40.7222456
Automotive High School,HS,610,50 BEDFORD AVENUE,BROOKLYN,NY,11222,K610,-73.9786759,40.6692988
Brooklyn East Alternative Learning Center - John Jay,HS,987,237 7th Avenue,BROOKLYN,NY,11215,K460,-73.9582574,40.6495043
High School for Youth and Community Development at Erasmus,HS,537,911 FLATBUSH AVENUE,BROOKLYN,NY,11226,K465,-73.91788465,40.63368355
Academy for Conservation and the Environment,HS,637,6565 FLATLANDS AVENUE,BROOKLYN,NY,11236,K515,-74.0315956,40.6106945
The SEEALL Academy,IS,180,5601 16 AVENUE,BROOKLYN,NY,11204,K180,-73.94361849,40.6583284
High School for Public Service: Heroes of Tomorrow,HS,546,600 KINGSTON AVENUE,BROOKLYN,NY,11203,K470,-73.94361849,40.6583284
International Arts Business School,HS,544,600 Kingston Avenue,Brooklyn,NY,11203,K470,-73.94361849,40.6583284
School for Democracy and Leadership,HS,533,600 KINGSTON AVENUE,BROOKLYN,NY,11203,K470,-73.99386371,40.5945177
Joseph B Cavallaro,IS,281,8787 24th AVENUE,BROOKLYN,NY,11214,K281,-73.94361849,40.6583284
"School for Human Rights, The",HS,531,600 KINGSTON AVENUE,BROOKLYN,NY,11203,K470,-73.943911,40.7098149
Green School: An Academy for Environmental Careers,HS,454,223 GRAHAM AVENUE,BROOKLYN,NY,11206,K049,-73.9849061,40.6077255
Seth Low,IS,96,99 AVENUE P,BROOKLYN,NY,11204,K096,-73.9388683,40.6066177
Marine Park,IS,278,1925 STUART STREET,BROOKLYN,NY,11229,K278,-73.9779092,40.6950782
Community Roots Charter School,Charter,536,51 SAINT EDWARDS STREET,BROOKLYN,NY,11205,K067,-73.97190877,40.5824746
Herbert S. Eisenberg,IS,303,501 WEST AVENUE,BROOKLYN,NY,11224,K303,-73.94772793,40.6102333
James Madison High School,HS,425,3787 BEDFORD AVENUE,BROOKLYN,NY,11229,K425,-73.9215436,40.6477763
Kurt Hahn Expeditionary Learning School,HS,569,5800 TILDEN AVENUE,BROOKLYN,NY,11203,K415,-73.91788465,40.63368355
Brooklyn Theatre Arts High School,HS,567,6565 FLATLANDS AVENUE,BROOKLYN,NY,11236,K515,-73.94361849,40.6583284
Brooklyn Institute for Liberal Arts,HS,745,600 KINGSTON AVENUE,BROOKLYN,NY,11203,K470,-73.93508598,40.6757601
Launch Expeditionary Learning Charter School ,Charter,360,1580 DEAN STREET,BROOKLYN,NY,11213,K243,-73.98256477,40.656257
Brooklyn Urban Garden Charter School,Charter,758,500 19TH STREET,BROOKLYN,NY,11215,K280,-73.95381493,40.64836425
Walt Whitman,MS,246,72 VERONICA PLACE,BROOKLYN,NY,11226,K246,-74.00400038,40.6278673
The Christa McAuliffe School,IS,187,1171 65th STREET,BROOKLYN,NY,11219,K486,-73.98256477,40.656257
School for Innovation,MS,442,500 19th STREET,BROOKLYN,NY,11231,K280,-74.01481478,40.62623455
William Mckinley,JHS,259,7305 FT HAMILTON PARKWAY,BROOKLYN,NY,11228,K259,-73.9525804,40.6328096
Midwood High School,HS,405,2839 BEDFORD AVENUE,BROOKLYN,NY,11210,K405,-73.97280036,40.58801443
William Alexander,MS,51,350 5 AVENUE,BROOKLYN,NY,11215,K051,-73.91146394,40.66625475
Mott Hall Bridges Academy,MS,671,210 CHESTER STREET,BROOKLYN,NY,11212,K263,-73.9879307,40.66018105
Peter Rouget,MS,88,544 7TH AVENUE,BROOKLYN,NY,11215,K088,-73.98899114,40.66129974
New Voices School of Academic & Creative Arts,MS,443,330 18th STREET,BROOKLYN,NY,11215,K845,-73.9859427,40.6609074
"Magnet School of Math, Science and Design Technology",PS,10,511 7th AVENUE,BROOKLYN,NY,11215,K010,-73.98832879,40.69463915
Urban Assembly Institute of Math and Science for Young Women,MS,527,283 ADAMS STREET,BROOKLYN,NY,11201,K313,-73.9907261,40.66744495
Silas B. Dutcher,PS,124,515 4th AVENUE,BROOKLYN,NY,11215,K124,-74.01877825,40.62426595
Mckinley Park,PS,127,7805 7th AVENUE,BROOKLYN,NY,11228,K127,-73.95118486,40.66693295
Medgar Evers College Preparatory School,MS/HS,590,1186 CARROLL STREET,BROOKLYN,NY,11225,K590,-73.98064767,40.68039792
William A. Butler,PS,133,610 BALTIC STREET,BROOKLYN,NY,11217,K317,-73.99049606,40.68299575
New Dawn Charter High School,Charter,486,242 HOYT STREET,BROOKLYN,NY,11217,KBBA,-73.9657296,40.64135435
Alexine A. Fenty,PS,139,330 RUGBY ROAD,BROOKLYN,NY,11226,K139,-74.02930319,40.63433015
The Bayview,PS,102,211 72nd STREET,BROOKLYN,NY,11209,K102,-73.97606297,40.65708505
The Windsor Terrace School,PS,154,1625 11th AVENUE,BROOKLYN,NY,11215,K154,-73.98116083,40.66296875
John W. Kimball Learning Center,PS,107,1301 8th AVENUE,BROOKLYN,NY,11215,K107,-73.96182709,40.7060232
Leonard Dunkly,PS,16,157 WILSON STREET,BROOKLYN,NY,11211,K016,-73.98776237,40.67102405
The Maurice Sendak Community School,PS,118,211 8TH STREET,BROOKLYN,NY,11215,K763,-74.01195231,40.67693345
Patrick F. Daly,PS,15,71 SULLIVAN STREET,BROOKLYN,NY,11231,K015,-73.9545698,40.6327088
School of Science & Technology,PS,152,725 EAST 23rd STREET,BROOKLYN,NY,11210,K152,-73.96002532,40.6011596
Homecrest,PS,153,1970 HOMECREST AVENUE,BROOKLYN,NY,11229,K153,-73.98582801,40.6371568
Caesar Rodney,PS,164,4211 14th AVENUE,BROOKLYN,NY,11219,K164,-74.00510126,40.6247838
Ovington,PS,176,1225 69th STREET,BROOKLYN,NY,11219,K176,-74.03348573,40.6236434
Walter Kassenbrock,PS,185,8601 RIDGE BOULEVARD,BROOKLYN,NY,11209,K185,-73.96992132,40.5901611
Arturo Toscanini,PS,216,350 AVENUE X,BROOKLYN,NY,11223,K216,-73.95158232,40.61259845
The Kings Highway Academy,PS,197,1599 EAST 22nd STREET,BROOKLYN,NY,11210,K197,-73.97109905,40.6910261
Clinton Hill,PS,20,225 ADELPHI STREET,BROOKLYN,NY,11205,K020,-73.98067742,40.6455082
Doris L. Cohen,PS,230,1 ALBEMARLE ROAD,BROOKLYN,NY,11218,K230,-73.91393265,40.65157225
Langston Hughes - PS 233,PS,233,9301 AVENUE B,BROOKLYN,NY,11236,K233,-73.96613682,40.6335451
Colonel David Marcus School,PS,217,1100 NEWKIRK AVENUE,BROOKLYN,NY,11230,K217,-73.94069257,40.65519715
Janice Marie Knight School,PS,235,525 Lenox Road,Brooklyn,NY,11203,K235,-74.00445465,40.65274685
The Dual Language School of International Studies,PS,24,427 38th STREET,BROOKLYN,NY,11232,K024,-73.96067121,40.66887545
Emma L. Johnston,PS,241,976 PRESIDENT STREET,BROOKLYN,NY,11225,K241,-73.92382883,40.63127395
Paerdegat,PS,251,1037 EAST 54th STREET,BROOKLYN,NY,11234,K251,-73.89246694,40.64404755
Herman Schreiber,PS,279,1070 EAST 104th STREET,BROOKLYN,NY,11236,K279,-73.96635027,40.6495523
The Caton,PS,249,18 MARLBOROUGH ROAD,BROOKLYN,NY,11226,K249,-74.00756275,40.63225145
The School For Future Leaders,PS,310,942 62ND STREET,BROOKLYN,NY,11219,K310,-73.97343622,40.58794681
William Penn,PS,321,180 7 AVENUE,BROOKLYN,NY,11215,K321,-73.95138401,40.59089055
Dag Hammarskjold,PS,254,1801 AVENUE Y,BROOKLYN,NY,11235,K254,-73.99578897,40.5747966
Surfside,PS,329,2929 WEST 30th STREET,BROOKLYN,NY,11224,K329,-73.94976927,40.72639205
Oliver H. Perry,PS,34,131 NORMAN AVENUE,BROOKLYN,NY,11222,K034,-73.98866541,40.6872177
Philip Livingston,PS,261,314 PACIFIC STREET,BROOKLYN,NY,11201,K261,-73.98282507,40.68495485
The Pacific,PS,38,450 PACIFIC STREET,BROOKLYN,NY,11217,K038,-73.98292433,40.668649
Henry Bristow,PS,39,417 6th AVENUE,BROOKLYN,NY,11215,K039,-73.96028604,40.67703065
Brooklyn Arts and Science Elementary School,PS,705,443 ST MARKS AVENUE,BROOKLYN,NY,11238,K022,-73.98129536,40.58906175
Brooklyn Occupational Training Center,PS,721,64 AVENUE X,BROOKLYN,NY,11223,K722,-73.9657362,40.6783215
Teunis G. Bergen (aka Sarah Smith Garnet),PS,9,80 UNDERHILL AVENUE,BROOKLYN,NY,11238,K009,-73.9333948,40.6363111
,PS/IS,109,1001 EAST 45th STREET,BROOKLYN,NY,11203,K395,-73.9402889,40.5916778
The Fort Hamilton School,PS/IS,104,9115 5 AVENUE,BROOKLYN,NY,11209,K104,-73.97985653,40.6289831
The Magnet School for Math and Science Inquiry,PS,192,4715 18th AVENUE,BROOKLYN,NY,11204,K192,-73.908454,40.63418075
Louis Marshall,PS,276,1070 EAST 83rd STREET,BROOKLYN,NY,11236,K276,-73.94590042,40.71479765
The Conselyea School,PS,132,320 MANHATTAN AVENUE,BROOKLYN,NY,11211,K132,-73.98899114,40.66129974
,PS,295,330 18th STREET,BROOKLYN,NY,11215,K845,-73.97165866,40.6945922
Edward C. Blum,PS,46,100 CLERMONT AVENUE,BROOKLYN,NY,11205,K046,-73.96092771,40.67457635
Elijah Stroud,PS,316,750 CLASSON AVENUE,BROOKLYN,NY,11238,K316,-73.99127362,40.6802926
,PS,32,317 HOYT STREET,BROOKLYN,NY,11231,K032,-73.98560571,40.67642825
The Children's School,PS,372,512 CARROLL STREET,BROOKLYN,NY,11215,K834,-73.9355312,40.6818194
Brooklyn Brownstone School,PS,628,272 MACDONOUGH STREET,BROOKLYN,NY,11233,K035,-73.92768,40.6640286
New American Academy,PS,770,60 EAST 94th STREET,BROOKLYN,NY,11212,K398,-73.9389975,40.5913896
Connie Lekas School,PS,811,2525 HARING STREET,BROOKLYN,NY,11235,K286,-73.96368863,40.7149446
Jose De Diego,PS/MS,84,250 BERRY STREET,BROOKLYN,NY,11249,K084,-73.98014786,40.5780941
Edna Cohen School,PS,90,2840 WEST 12th STREET,BROOKLYN,NY,11224,K090,-74.02030349,40.63949425
"School of Math, Science, and Healthy Living",PS,971,6214 4TH AVENUE,BROOKLYN,NY,11220,K971,-73.97759671,40.6766316
Park Slope,PS,282,180 6th AVENUE,BROOKLYN,NY,11217,K282,-73.93883093,40.6260483
Amersfort,PS,119,3829 AVENUE K,BROOKLYN,NY,11210,K119,-73.9602754,40.684069
Lewis H. Latimer,PS,56,170 GATES AVENUE,BROOKLYN,NY,11238,K056,-73.95340052,40.7222456
Automotive High School,HS,610,50 BEDFORD AVENUE,BROOKLYN,NY,11222,K610,-73.9478976,40.6974432
The Ethical Community Charter School (TECCS),PS,734,700 PARK AVENUE,BROOKLYN,NY,11206,K297,-73.86944406,40.68587145
Highland Park Community School,IS,760,528 RIDGEWOOD AVENUE,BROOKLYN,NY,11208,K171,-73.94730065,40.69670995
I033K,P (District 75),368,70 TOMPKINS AVENUE,BROOKLYN,NY,11206,K033,-73.96033977,40.66994585
International High School at Prospect Heights,HS,524,883 CLASSON AVENUE,BROOKLYN,NY,11225,K440,-73.9215436,40.6477763
New American Academy Charter School,PS,736,5800 TILDEN AVENUE,BROOKLYN,NY,11203,K415,-73.9482279,40.7032106
Eugenio Maria De Hostos,IS,318,101 WALTON STREET,BROOKLYN,NY,11206,K318,-73.8888393,40.6570252
,PS,4,530 STANLEY AVENUE,BROOKLYN,NY,11207,K843,-73.89478912,40.6622562
Essence School,IS,311,590 SHEFFIELD AVENUE,BROOKLYN,NY,11207,K190,-74.02403761,40.63362464
Mary White Ovington,PS/IS,30,7002 4TH AVENUE,BROOKLYN,NY,11209,K331,-73.97591941,40.6488791
The Parkside,PS,130,70 OCEAN PARKWAY,BROOKLYN,NY,11218,K130,-73.9478976,40.6974432
Abraham Stockton,PS,297,700 PARK AVENUE,BROOKLYN,NY,11206,K297,-73.90505439,40.68973305
Frances E. Carter,PS/IS,384,242 COOPER STREET,BROOKLYN,NY,11207,K384,-73.95399598,40.7269071
Samuel F. Dupont,PS,31,75 MESEROLE AVENUE,BROOKLYN,NY,11222,K031,-74.00052116,40.61941315
Lefferts Park,PS,112,7115 15th AVENUE,BROOKLYN,NY,11228,K112,-73.91082218,40.6806693
Brooklyn Landmark Elementary School,PS,599,251 MACDOUGAL STREET,BROOKLYN,NY,11233,K073,-73.91317959,40.6208277
Roy H. Mann,JHS,78,1420 EAST 68th STREET,BROOKLYN,NY,11234,K078,-73.88723945,40.6604378
,PS,36,2045 LINDEN BOULEVARD,BROOKLYN,NY,11207,K857,-74.0085124,40.6506653
Sunset Park Avenue Elementary School,PS,516,4222 4th Avenue,BROOKLYN,NY,11232,K333,-73.93667412,40.59351635
Professional Pathways High School,HS,630,3000 AVENUE X,BROOKLYN,NY,11235,K495,-73.94779234,40.71976355
John Ericsson Middle School 126,MS,126,424 LEONARD STREET,BROOKLYN,NY,11222,K126,-73.99766794,40.6868795
John M. Harrigan,PS,29,425 HENRY STREET,BROOKLYN,NY,11201,K029,-73.96944346,40.6834798
School for Career Development,HS,753,510 CLERMONT AVENUE,BROOKLYN,NY,11238,K085,-73.9417118,40.7028047
John F. Hylan,PS,257,60 COOK STREET,BROOKLYN,NY,11206,K257,-74.00210945,40.679534
,PS,146,610 HENRY STREET,BROOKLYN,NY,11231,K142,-73.93522948,40.6882961
Clara Cardwell,PS/IS,308,616 QUINCY STREET,BROOKLYN,NY,11221,K308,-73.96002532,40.6011596
Homecrest,PS,153,1970 HOMECREST AVENUE,BROOKLYN,NY,11229,K153,-73.90927668,40.6219272
Bergen Beach,PS,312,7103 AVENUE T,BROOKLYN,NY,11234,K312,-73.936059,40.6639193
Toussaint L'Ouverture,PS,221,791 EMPIRE BOULEVARD,BROOKLYN,NY,11213,K221,-73.93772428,40.69462565
Bedford Stuyvesant New Beginnings Charter School,PS/MS,782,82 LEWIS AVENUE,BROOKLYN,NY,11206,KAKB,-73.93508598,40.6757601
The Weeksville School,PS,243K,1580 DEAN STREET,BROOKLYN,NY,11213,K243,-74.00029338,40.65774855
Beacon School of Excellence,PS,172,825 4th AVENUE,BROOKLYN,NY,11232,K172,-73.95896886,40.6197588
Edward R. Murrow High School,HS,525,1600 AVENUE L,BROOKLYN,NY,11230,K525,-73.9951392,40.6048269
Brooklyn Studio Secondary School,MS/HS,690,8310 21ST AVENUE,BROOKLYN,NY,11214,K721,-73.8981466,40.6411019
Brooklyn STEP Academy at Canarsie Educational Campus,HS,,1600 Rockaway Parkway,Brooklyn,NY,11236,K500,-73.9773428,40.64021665
Kensington,PS,179,202 AVENUE C,BROOKLYN,NY,11218,K179,-73.943911,40.7098149
Lyons Community School,MS/HS,586,223 GRAHAM AVENUE,BROOKLYN,NY,11206,K049,-73.97704196,40.60077885
David A. Boody,IS,228,228 AVENUE S,BROOKLYN,NY,11223,K228,-73.9786759,40.6692988
Secondary School for Journalism,HS,463,237 7th AVENUE,BROOKLYN,NY,11215,K460,-73.99869957,40.57379705
Williamsburg Preparatory School,HS,561,257 NORTH 6 STREET,BROOKLYN,NY,11211,K650,-73.99329318,40.68501145
Digital Arts and Cinema Technology High School,MS/HS,429,284 BALTIC STREET,BROOKLYN,NY,11201,K293,-73.97144651,40.68856045
Ronald Edmonds Learning Center,MS,113,300 ADELPHI STREET,BROOKLYN,NY,11205,K113,-73.93667412,40.59351635
Professional Pathways High School,HS,630,3000 AVENUE X,BROOKLYN,NY,11235,K495,-73.95684882,40.68129509
Brooklyn Prospect Charter School- Clinton Hill Middle School,MS/HS,707,1100 Fulton St,BROOKLYN,NY,11238,KAGI,-73.9927608,40.7008009
Robert Fulton,PS,8,37 HICKS STREET,BROOKLYN,NY,11201,K008,-73.95554384,40.68230245
The Bedford Village,PS,3,50 JEFFERSON AVENUE,BROOKLYN,NY,11216,K003,-73.93866619,40.70503765
Isaac Remsen,PS,147,325 BUSHWICK AVENUE,BROOKLYN,NY,11206,K147,-73.89513674,40.6669096
World Academy for Total Community Health High School,HS,510,400 PENNSYLVANIA AVENUE,BROOKLYN,NY,11207,K435,-73.92604271,40.6803709
Crispus Attucks,CS,21,180 CHAUNCEY STREET,BROOKLYN,NY,11233,K021,-73.97995086,40.68401425
The Math & Science Exploratory School,MS,447,345 DEAN STREET,BROOKLYN,NY,11217,K655,-73.986955,40.6071112
Brooklyn School of Inquiry,PS/MS,686,50 AVENUE P,BROOKLYN,NY,11204,K237,-73.8977103,40.6655431
Brooklyn Gardens Elementary School,PS,557,574 DUMONT AVENUE,BROOKLYN,NY,11207,K174,-73.93000916,40.6137701
Elizabeth G. Leary,PS,207,4011 FILLMORE AVENUE,BROOKLYN,NY,11234,K207,-73.9895995,40.6266673
PS 231@180,PS,231,5601 16th AVENUE,BROOKLYN,NY,11223,K180,-73.96583811,40.6855509
Purvis J. Behan,PS,11,419 WAVERLY AVENUE,BROOKLYN,NY,11238,K011,-73.9765909,40.6789125
Park Place Community Middle School,MS,266,62 PARK PLACE,BROOKLYN,NY,11217,K902,-73.98165919,40.70172445
Daniel Hale Williams,PS,307,209 YORK STREET,BROOKLYN,NY,11201,K307,-73.9602754,40.684069
The Urban Assembly Unison School,PS,351,170 GATES AVENUE,BROOKLYN,NY,11238,K056,-73.97640887,40.6887573
Brooklyn Technical High School,HS,430,29 FT GREENE PLACE,BROOKLYN,NY,11217,K430,-73.9420329,40.7236399
The Monitor,PS,110,124 MONITOR STREET,BROOKLYN,NY,11222,K110,-73.9596596,40.6952757
The Benjamin Franklin Health & Science Academy,PS/IS,157,850 KENT AVENUE,BROOKLYN,NY,11205,K157,-73.94599172,40.70675175
George H. Lindsay,PS,250,108 MONTROSE AVENUE,BROOKLYN,NY,11206,K250,-73.995048,40.680303
The Carroll,PS,58,330 SMITH STREET,BROOKLYN,NY,11231,K058,-74.00739855,40.6522119
Charles O. Dewey,MS,136,4004 4th AVENUE,BROOKLYN,NY,11232,K136,-74.0015668,40.6459
Sunset Park,PS,169,4305 7th AVENUE,BROOKLYN,NY,11232,K169,-73.9893526,40.6900156
Brooklyn Frontiers High School,HS,423,112 SCHERMERHORN STREET,BROOKLYN,NY,11201,K520,-73.99329318,40.68501145
Boerum Hill School for International Studies,HS,497,284 BALTIC STREET,BROOKLYN,NY,11201,K293,-74.01420467,40.6777929
South Brooklyn Community High School,HS,698,173 CONOVER STREET,BROOKLYN,NY,11231,K825,-73.9226032,40.6855458
Dr. Ronald Mcnair,PS,5,820 HANCOCK STREET,BROOKLYN,NY,11233,K005,-73.93225331,40.69199046
Jesse Owens,PS,26,1014 LAFAYETTE AVENUE,BROOKLYN,NY,11221,K026,-73.92146604,40.6801965
George W. Carver,PS,40,265 RALPH AVENUE,BROOKLYN,NY,11233,K040,-73.93435686,40.69292515
Thaddeus Stevens,PS,81,990 DEKALB AVENUE,BROOKLYN,NY,11221,K081,-73.92437489,40.68811325
The George E. Wibecan Preparatory Academy,PS,309,794 MONROE STREET,BROOKLYN,NY,11221,K309,-73.92146604,40.6801965
Gotham Professional Arts Academy,,594,265 RALPH AVENUE,BROOKLYN,NY,11233,K040,-73.9407365,40.69375945
Brighter Choice Community School,,627,280 HART STREET,BROOKLYN,NY,11206,K304,-73.9515241,40.6564413
Parkside Preparatory Academy,MS,2,655 PARKSIDE AVENUE,BROOKLYN,NY,11226,K002,-73.95604704,40.6489803
,PS,6,43 SNYDER AVENUE,BROOKLYN,NY,11226,K006,-73.9197565,40.6728542
Dr. Jacqueline Peek-Davis School,PS,12,430 HOWARD AVENUE,BROOKLYN,NY,11233,K012,-73.92572413,40.66543125
The Bilingual Center,PS,189,1100 EAST NEW YORK AVENUE,BROOKLYN,NY,11212,K189,-73.9582574,40.6495043
Academy of Hospitality and Tourism,,408,911 FLATBUSH AVENUE,BROOKLYN,NY,11226,K465,-73.91092484,40.63532915
Isaac Bildersee,IS,68,956 EAST 82nd STREET,BROOKLYN,NY,11236,K068,-73.89821328,40.63485025
Daniel Mucatel School,PS,115,1500 EAST 92nd STREET,BROOKLYN,NY,11236,K115,-73.93296917,40.653255
Sheldon A. Brookner,PS,135,684 LINDEN BOULEVARD,BROOKLYN,NY,11203,K135,-73.93065448,40.64245105
Elsa Ebeling,PS,208,4801 AVENUE D,BROOKLYN,NY,11203,K208,-73.89176425,40.6474141
The Science and Medicine Middle School ,MS,366,965 EAST 107TH STREET,BROOKLYN,NY,11236,K366,-73.91788465,40.63368355
Brooklyn Generation School,HS,566,6565 FLATLANDS AVENUE,BROOKLYN,NY,11236,K515,-73.9198593,40.6578814
Middle School for Art and Philosophy,,588,1084 LENOX ROAD,BROOKLYN,NY,11212,K252,-73.88522812,40.67261275
Warwick,PS,158,400 ASHFORD STREET,BROOKLYN,NY,11207,K158,-73.86944406,40.68587145
Abraham Lincoln,IS,171,528 RIDGEWOOD AVENUE,BROOKLYN,NY,11208,K171,-73.8936057,40.6713428
Margaret S. Douglas,HS,292,301 VERMONT STREET,BROOKLYN,NY,11207,K292,-73.88188062,40.6467453
Abe Stark,PS,346,1400 PENNSYLVANIA AVENUE,BROOKLYN,NY,11239,K346,-73.89602735,40.6737205
East New York Family Academy,,409,145 PENNSYLVANIA AVENUE,BROOKLYN,NY,11207,K819,-73.86907526,40.6930081
Academy of Innovative Technology,HS,618,999 JAMAICA AVENUE,BROOKLYN,NY,11208,K420,-73.8854448,40.6598768
Van Siclen Community Middle School,,654,800 VAN SICLEN AVE,BROOKLYN,NY,11207,K166,-73.8792055,40.66957195
East New York Elementary School of Excellence,,677,605 SHEPHERD AVENUE,BROOKLYN,NY,11208,K072,-73.99457282,40.6111022
Dr. Irving A Gladstone,PS,186,7601 19th AVENUE,BROOKLYN,NY,11214,K186,-73.9822359,40.634787
The Montauk,HS,223,4200 16th AVENUE,BROOKLYN,NY,11204,K223,-74.0190356,40.6420387
The School of Journalism & Technology,PS,506,330 59th St,BROOKLYN,NY,11220,K314,-73.9788757,40.6229106
Nelson A. Rockefeller,PS,121,5301 20th AVENUE,BROOKLYN,NY,11204,K121,-74.00059787,40.5768967
Michael E. Berdy,PS,188,3314 NEPTUNE AVENUE,BROOKLYN,NY,11224,K188,-73.96324114,40.61630395
Frederick Wachtel,PS,199,1100 ELM AVENUE,BROOKLYN,NY,11230,K199,-73.96348874,40.5833954
William E. Grady Career and Technical Education High School,HS,620,25 BRIGHTON 4TH ROAD,BROOKLYN,NY,11235,K620,-73.94883,40.597332
Joseph F Lamb,PS,206,2200 GRAVESEND NECK ROAD,BROOKLYN,NY,11229,K206,-73.94680779,40.62370525
Magnet School of STEM/Andries Hudde,,240,2500 NOSTRAND AVENUE,BROOKLYN,NY,11210,K240,-73.91536166,40.6752327
Saint Clair Mckelway,PS,178,2163 DEAN STREET,BROOKLYN,NY,11233,K178,-73.90756195,40.66695295
"The Gregory Jacko Jackson School of Sports, Art, and Technology",PS,284,213 OSBORN STREET,BROOKLYN,NY,11212,K284,-73.91208656,40.66552085
Teachers Preparatory High School,HS,697,226 BRISTOL STREET,BROOKLYN,NY,11212,K175,-73.91977342,40.7067391
The Willoughby,IS,162,1390 WILLOUGHBY AVENUE,BROOKLYN,NY,11237,K162,-73.9195423,40.6977934
Philippa Schuyler,JHS,383,1300 GREENE AVENUE,BROOKLYN,NY,11237,K383,-73.9113818,40.6970899
Bushwick School for Social Justice,,549,400 IRVING AVENUE,BROOKLYN,NY,11237,K480,-73.9113818,40.6970899
Academy of Urban Planning,HS,552,400 IRVING AVENUE,BROOKLYN,NY,11237,K480,-73.92764577,40.6954245
Bushwick Leaders High School for Academic Excellence,HS,556,797 BUSHWICK AVENUE,BROOKLYN,NY,11221,K865,-73.9879307,40.66018105
P53K,PS,53,544 7TH AVENUE,BROOKLYN,NY,11215,K088,-73.9515241,40.6564413
,PS,77,"62 Park Place
",BROOKLYN,NY,11217,K902,-73.98064767,40.68039792
,PS,141,655 PARKSIDE AVENUE,BROOKLYN,NY,11226,K002,-73.96989284,40.5777203
Cory L. Cox School @ PS133,PS,369, 610 Baltic St,BROOKLYN,NY,11217,K317,-74.0053735,40.6541035
The Jim Thorpe School ,PS,370,3000 WEST 1st STREET,BROOKLYN,NY,11224,K370,-73.92769565,40.70080065
Lillian L. Rashkis,PS,371,355 37th STREET,BROOKLYN,NY,11232,K371,-73.9179321,40.6689067
Achievement First University Prep,Charter,687,35 STARR STREET,BROOKLYN,NY,11221,K111,-73.91429356,40.6122092
Brownsville Ascend Charter School,,737,1501 PITKIN AVENUE,BROOKLYN,NY,11212,KBVT,-73.8834872,40.66006915
Hebrew Language Academy Charter School,CS,746, 2186 Mill Avenue,BROOKLYN,NY,11234,KBVU,-73.97144651,40.68856045
Imagine Me Leadership Charter School,,785,818 SCHENCK AVENUE,BROOKLYN,NY,11207,KAKM,-73.9081616,40.6546151
Compass Charter School,PS,789,300 ADELPHI STREET,BROOKLYN,NY,11205,K113,-73.95734749,40.64865465
The Cultural Arts Academy at Spring Creek Charter School,CS,792,1400 LINDEN BOULEVARD,BROOKLYN,NY,11212,KBXV,-74.0225329,40.6445307
PS36K @ Flatbush Town Hall,PS,36,35 Snyder Avenue,Brooklyn,NY,11226,K877,-73.99329318,40.68501145
,Pre-K,664,140 58th Street,Brooklyn,NY,11238,,-73.9279476,40.7020706
PS 368 @PS293K - District 75 Star Academy,P (District 75),368,284 Baltic Street,BROOKLYN,NY,11201,K293,-73.92018286,40.688531
Bushwick United Head Start,Pre-K,,77 Wilson Avenue,Brooklyn,NY,11237,,-73.92319564,40.6669975
Ace Integration Head Start,Pre-K,,1419 Broadway,Brooklyn,NY,11221,,-73.95963011,40.645229
Inner Force Tots,Pre-K,,1181 E. New York Avenue,Brooklyn,NY,11212,,-73.8665072,40.6641498
St. Mark's Head Start & UPK,Pre-K,,2017 Beverly Road,Brooklyn,NY,11226,,-73.90881427,40.62161702
@PS224,P (District 75),36,755 Wortman Avenue,Brooklyn,NY,11208,K224,-73.9515241,40.6564413
The Genovesi Environmental Study Center,,905,7151 Avenue T,Brooklyn,NY,11234,,-73.921665,40.674636
@ MS 002,P (District 75),141,655 Parkside Avenue,Brooklyn,NY,11226,17K002,-73.97292194,40.64793595
@ Brooklyn Children Ctr.,P (District 75),368,1819 Bergen Street,Brooklyn,NY,11233,KBBY ,-73.87518349,40.65820304
53@PS437,PS,53,713 Caton Ave,Brooklyn,NY,11218,,-73.9323979,40.7014771
P53K@ Spring Creek,HS,53,1065 Elton Street,Brooklyn,NY,11239,,-73.9582574,40.6495043
Andrew Jackson,PS,145,100 NOLL STREET,BROOKLYN,NY,11206,K145,-73.9710275,40.6446591
High School for Youth and Community Development at Erasmus,HS,537,911 FLATBUSH AVENUE,BROOKLYN,NY,11226,K465,-73.9355312,40.6818194
MS 890,MS,890,"21 HINCKLEY PLACE
",BROOKLYN,NY,11218,,-73.9475228,40.6846677
,PS,889,21 Hinckley Place,Brooklyn,NY,11218,,-73.9113762,40.6679669
P141@MS35,P (District 75),141,272 MacDonough St,Brooklyn,NY,11233,,-73.94584421,40.64806245
Bedford Stuyvesant Complex/Referral Center,,950,832 Marcy Avenue,Brooklyn,NY,11216,,-73.91146394,40.66625475
@main,P (District 75),396,110 Chester Street,Brooklyn,NY,11212,,-73.93432099,40.66950895
@181,P (District 75),396,1023 New York Avenue,Brooklyn,NY,11203,,-73.98561715,40.695289
@323,P (District 75),396,210 Chester Street ,Brooklyn,NY,11212,,-73.95776219,40.7119454
@532,P (District 75),396,1025 Eastern Parkway,Brooklyn,NY,11213,,-73.9465571,40.6799803
,MS,915,105 Johnson Street,Brooklyn,NY,11201,,-73.9460706,40.6976757
Bushwick United Day Care Center,Pre-K,,243 S. 2nd St.,Brooklyn,NY,11211,,-73.9125908,40.6157449
Little Sun People,Pre-K,,1360 Fulton Street,Brooklyn,NY,11216,,-73.98355147,40.6874348
Tompkins Childrens Center,Pre-K,,730 Park Avenue,Brooklyn,NY,11206,,-73.94268573,40.67422425
@PS236,PS,771,6302 Avenue U,Brooklyn ,NY,11234,K236,-73.88267514,40.73965325
@ Main Site ,P (District 75),369,383 State Street,Brooklyn ,NY,11217,,-73.82127484,40.7349959
@289,P (District 75),396,900 St. Marks Avenue,Brooklyn ,NY,11213,,-73.89287021,40.7526244
@ P.S 007Q- D75 Satellite Site,PS,255,80-55 Cornish Ave.,Elmhurst,NY,11373,,-73.79792452,40.71421795
@Townsend Harris High School,P (District 75),255,149-11 Melbourne Ave,Queens,NY,11367,,-73.77560182,40.67488365
P233Q@686 ,P (District 75),233,"91-30 Metropolitan Ave
",Forest Hills ,NY,11375,,-73.79824536,40.7083261
,IS,230,73-10 34th AVENUE,JACKSON HEIGHTS,NY,11372,Q230,-73.8000418,40.6804469
Queens Collegiate: A College Board School,,310,167-01 GOTHIC DRIVE,JAMAICA,NY,11432,Q470,-73.72864418,40.7564394
P993Q @ MS72,P (District 75),993,133-25 Guy R Brewer Blvd,Queens,NY,11434,Q072,-73.9357299,40.7530851
The Queens School for Leadership and Excellence,PS,349,88-08 164th Street,Jamaica,NY,11432,,-73.94522804,40.742202
P233Q@875,P (District 75),233,114-43 142nd Street,Jamaica,NY,11436,Q875,-73.9487379,40.7510618
Main Site- Marathon School,P (District 75),811,61-25 Marathon Parkway,Little Neck,NY,11362,,-73.9348875,40.809623
Growing Up Green Charter School,Charter,321,39-37 28th Street,Long Island City,NY,11101,QARY,-74.0160109,40.7051424
PS004Q@ Skillman Avenue,PS,4,24-30 Skillman Avenue,Long Island City,NY,11101,Q667,-73.94846362,40.7937647
Growing Up Green Middle School ,MS,321,36-49 11th St,Long Island City,NY,11101,,-73.9428949,40.8144365
,PS,208,21 WEST 111 STREET,MANHATTAN,NY,10026,M208,-73.9558954,40.8075684
John V. Lindsay Wildcat Academy Charter School,Charter,707,17 BATTERY PLACE,MANHATTAN,NY,10004,MAEG,-73.9377979,40.82586705
Central Park East I,PS,497,1573 MADISON AVENUE,MANHATTAN,NY,10029,M013,-74.0064061,40.7288141
Henry H Garnet,PS,175,175 WEST 134th STREET,MANHATTAN,NY,10030,M175,-73.93675222,40.80651062
Hugo Newman,PS,180,370 WEST 120th STREET,MANHATTAN,NY,10027,M180,-73.93994018,40.80775495
Thurgood Marshall Academy Lower School,PS,318,276 WEST 151ST STREET,MANHATTAN,NY,10039,M371,-73.9366893,40.8243845
Manhattan Occupational Training Center,PS,721,250 WEST HOUSTON STREET,MANHATTAN,NY,10014,M641,-73.94223865,40.8026878
Hernandez/Hughes,PS,30,144-176 EAST 128th STREET,MANHATTAN,NY,10035,M030,-73.94851756,40.8061986
Harlem Renaissance High School,HS,285,22 EAST 128th STREET,MANHATTAN,NY,10035,M911,-73.9390792,40.78970635
Frederick Douglass Academy,HS,499,2581 7TH AVENUE,MANHATTAN,NY,10039,M010,-73.93861145,40.8069766
Horan School,PS,79,55 EAST 120th STREET,MANHATTAN,NY,10035,M079,-73.951066,40.7923808
Future Leaders Institute Charter School,Charter,242,134 WEST 122nd STREET,MANHATTAN,NY,10027,M144,-73.9302129,40.7970452
Ann M. Short,PS,146,421 EAST 106th STREET,MANHATTAN,NY,10029,M146,-73.9562682,40.8107237
"Harlem Renaissance
",Charter,341,2005 MADISON AVENUE,MANHATTAN,NY,10035,M501,-74.0114151,40.7044516
Central Park East II,PS,964,19 EAST 103rd STREET,MANHATTAN,NY,10029,M171,-73.98339783,40.75764675
River East Elementary,PS,37,508 EAST 120th STREET,MANHATTAN,NY,10035,M206,-73.98813404,40.7259352
Columbia Secondary School,PS,362,425 WEST 123rd STREET,MANHATTAN,NY,10027,M125,-73.9742029,40.7857432
Millennium High School,HS,418,75 BROAD STREET,MANHATTAN,NY,10004,M824,-73.98597209,40.77418495
Jacqueline Kennedy Onassis High School,HS,529,120 WEST 46th STREET,MANHATTAN,NY,10036,M486,-73.97819028,40.78088125
Manhattan School for Career Development Preparatory (MSCD),P (District 75),751,113 EAST 4TH STREET,MANHATTAN,NY,10003,M751,-73.9809816,40.7462177
The Urban Assembly School for Green Careers,HS,402,145 WEST 84th STREET,MANHATTAN,NY,10024,M470,-74.0011694,40.7114702
Fiorello H. LaGuardia High School of Music & Art and Performing Arts,HS,485,100 AMSTERDAM AVENUE,MANHATTAN,NY,10023,M485,-73.99713231,40.71044425
The Computer School,MS,245,100 WEST 77th STREET,MANHATTAN,NY,10024,M044,-73.9787117,40.721785
Murray Hill Academy,MS,432,111 EAST 33RD STREET,MANHATTAN,NY,10016,M620,-74.00036946,40.74892885
Murry Bergtraum High School for Business Careers,HS,520,411 PEARL STREET,MANHATTAN,NY,10038,M520,-73.9711891,40.7916365
Manhattan Academy of Technology (aka Jacob Riis),PS/MS,126,80 CATHERINE STREET,MANHATTAN,NY,10038,M126,-74.0063104,40.7293243
Roberto Clemente,PS,15,333 EAST 4th STREET,MANHATTAN,NY,10009,M015,-73.98251645,40.7290878
Chelsea Prep,PS,33,281 9th AVENUE,MANHATTAN,NY,10001,M033,-74.00023641,40.74182085
Manhattan School for Children,PS,333,154 WEST 93rd STREET,MANHATTAN,NY,10025,M118,-73.94823065,40.7639554
High School M560 - City As School,HS,560,16 CLARKSON STREET,MANHATTAN,NY,10014,M641,-73.96678431,40.79712195
East Side Community School,HS,450,420 EAST 12th STREET,MANHATTAN,NY,10009,M060,-73.96609436,40.80266
,,,,,,,,-73.97504449,40.72601725
Liberty High School Academy for Newcomers,PS,89,250 WEST 18th STREET,MANHATTAN,NY,10011,M451,-73.9872281,40.7224382
Roosevelt Island,PS,217,645 MAIN STREET,MANHATTAN,NY,10044,M271,-73.96074159,40.7777149
Edward A. Reynolds West Side High School,HS,505,140 WEST 102nd STREET,MANHATTAN,NY,10025,M506,-73.92626345,40.8555093
Robert E. Simon,PS,165,234 WEST 109th STREET,MANHATTAN,NY,10025,M165,-73.94009471,40.84550725
Franklin D. Roosevelt,PS/MS,34,730 EAST 12th STREET,MANHATTAN,NY,10009,M034,-73.99352083,40.716184
Girls Preparatory Charter School of New York,Charter,330,442 EAST HOUSTON STREET,MANHATTAN,NY,10002,M188,-73.93006018,40.86093735
Lillie D. Blake,PS,6,45 EAST 81st STREET,MANHATTAN,NY,10028,M006,-73.95423077,40.80753205
High School for Law and Public Service,HS,467,549 AUDUBON AVENUE,MANHATTAN,NY,10040,M465,-73.99748905,40.71259565
Harbor Heights,MS,349,306 FORT WASHINGTON AVENUE,MANHATTAN,NY,10033,M173,-73.93397233,40.8505179
,MS,131,100 HESTER STREET,MANHATTAN,NY,10002,M131,-74.0007718,40.7444663
Middle School 322,MS,322,4600 BROADWAY,MANHATTAN,NY,10040,M218,-73.96839264,40.7949444
New York French American Charter School,Charter,483,311 WEST 120TH STREET,MANHATTAN,NY,10027,MAVC,-73.97259647,40.78898405
Alfred E. Smith,PS,1,8 HENRY STREET,MANHATTAN,NY,10038,M001,-73.92788083,40.85921542
Dos Puentes Elementary School,PS,103,185 WADSWORTH AVENUE,MANHATTAN,NY,10033,M132,-73.92786211,40.85292985
William T. Harris,PS,11,320 WEST 21st STREET,MANHATTAN,NY,10011,M011,-73.93783035,40.8133022
Alfred E. Smith,PS,163,163 WEST 97th STREET,MANHATTAN,NY,10025,M163,-74.00597277,40.73262315
The Richard Rodgers School of The Arts and Technology,PS,166,132 WEST 89th STREET,MANHATTAN,NY,10024,M166,-74.00554295,40.713399
Professor Juan Bosch Public School,PS,178,12-18 ELLWOOD STREET,MANHATTAN,NY,10040,M178,-73.98173018,40.73862865
,PS,189,2580 AMSTERDAM AVENUE,MANHATTAN,NY,10040,M189,-73.94745716,40.8264487
John B. Russwurm,PS,197,2230 5th AVENUE,MANHATTAN,NY,10037,M197,-73.91249573,40.8716942
Charrette School,PS,3,490 HUDSON STREET,MANHATTAN,NY,10014,M003,-73.959539,40.820283
The Peck Slip School,PS,343,52 CHAMBERS STREET,MANHATTAN,NY,10007,M860,-73.9853705,40.7390224
The 47 American Sign Language & English Lower School,PS,347,225 EAST 23rd STREET,MANHATTAN,NY,10010,M047,-74.01384204,40.7179876
Hamilton Heights School,PS,368,1750 AMSTERDAM AVENUE,MANHATTAN,NY,10031,M153,-73.97924634,40.786343
Paula Hedbavny School,PS/MS,278,421 W 219TH ST,MANHATTAN,NY,10034,M918,-73.9536111,40.8125
Pedro Albizu Campos,PS/MS,161,499 WEST 133rd STREET,MANHATTAN,NY,10027,M161,-73.9825978,40.732711
School of the Future High School,HS,413,127 EAST 22nd STREET,MANHATTAN,NY,10010,M660,-73.9840185,40.7182226
Stuyvesant High School,HS,475,345 CHAMBERS STREET,MANHATTAN,NY,10282,M477,-73.94854956,40.8105382
Mickey Mantle School,PS,811,466 WEST END AVENUE,MANHATTAN,NY,10024,M841,-74.0049893,40.72462945
Teachers College Community School,PS,517,168 MORNINGSIDE AVENUE,MANHATTAN,NY,10027,M916,-73.98603265,40.72005245
Institute for Collaborative Education,MS/HS,407,345 EAST 15TH STREET,MANHATTAN,NY,10003,M475,-73.95133432,40.8021316
Amalia Castro,PS,142,100 ATTORNEY STREET,MANHATTAN,NY,10002,M142,-73.97843593,40.72763415
Harriet Tubman,CS,154,250 WEST 127th STREET,MANHATTAN,NY,10027,M154,-73.9390786,40.80057925
NYC iSchool,HS,376,131 AVENUE OF THE AMERICAS,MANHATTAN,NY,10013,M615,-73.9886384,40.7615114
Lower East Side Preparatory High School,HS,515,145 STANTON STREET,MANHATTAN,NY,10002,M025,-73.98564239,40.77489495
Sisulu-Walker Charter School of Harlem,Charter,702,125 WEST 115th STREET,MANHATTAN,NY,10026,M202,-73.951066,40.7923808
The Children's Workshop School,PS,361,610 EAST 12th STREET,MANHATTAN,NY,10009,M061,-73.93708282,40.8370233
Samuel Stern,PS/MS,7,160 EAST 120th STREET,MANHATTAN,NY,10035,M007,-73.9114471,40.871629
Midtown West,PS,212,328 WEST 48th STREET,MANHATTAN,NY,10036,M017,-73.94247339,40.78555377
High School of Arts and Technology,HS,494,122 AMSTERDAM AVENUE,MANHATTAN,NY,10023,M490,-73.92404261,40.86636635
Patrick Henry,PS,171,19 EAST 103rd STREET,MANHATTAN,NY,10029,M171,-73.94447,40.829783
Manhattan Middle School for Scientific Inquiry,MS,328,401 WEST 164th STREET,MANHATTAN,NY,10032,M164,-73.98186978,40.72364925
Park Terrace,PS/IS,18,4124 9th AVENUE,MANHATTAN,NY,10034,M898,-73.9248011,40.8656163
Vito Marcantonio,PS/MS,50,433 EAST 100th STREET,MANHATTAN,NY,10029,M050,-73.9863227,40.72444665
Muscota,PS,314,4862 BROADWAY,MANHATTAN,NY,10034,M176,-73.9863227,40.72444665
Twenty-first Century Academy for Community Leadership,PS/IS,210,501-503 WEST 152nd STREET,MANHATTAN,NY,10031,M093,-73.94745716,40.8264487
Tompkins Square Middle School,MS,839,600 EAST 6th STREET,MANHATTAN,NY,10009,M064,-73.9580186,40.7719211
Inwood,JHS,52,650 ACADEMY STREET,MANHATTAN,NY,10034,M052,-73.9847331,40.77776595
The STAR Academy,PS,63,121 EAST 3rd STREET,MANHATTAN,NY,10009,M063,-73.9938678,40.720197
Neighborhood School,PS,363,121 EAST 3rd STREET,MANHATTAN,NY,10009,M063,-73.9470821,40.8173228
Adam Clayton Powell,PS,153,1750 AMSTERDAM AVENUE,MANHATTAN,NY,10031,M153,-74.01753756,40.7064132
Robert F. Wagner,MS,167,220 EAST 76th STREET,MANHATTAN,NY,10021,M167,-74.0109532,40.7182724
Jessie Isador Straus,PS,199,270 WEST 70th STREET,MANHATTAN,NY,10023,M199,-73.93848423,40.79503195
Florence Nightingale,PS,110,285 DELANCEY ST,MANHATTAN,NY,10002,M110,-73.9858503,40.7114985
Bread & Roses Integrated Arts High School,HS,685,6 EDGECOMBE AVENUE,MANHATTAN,NY,10030,M136,-74.01165071,40.70098785
Battery Park City School,PS/MS,276,55 BATTERY PLACE,MANHATTAN,NY,10280,M276,-73.9681635,40.789455
,PS,150,334 GREENWICH STREET,MANHATTAN,NY,10013,M840,-73.98186978,40.72364925
Jacques Cartier,PS,102,315 EAST 113th STREET,MANHATTAN,NY,10029,M102,-73.97843593,40.72763415
Shuang Wen,PS,184,327 CHERRY STREET,MANHATTAN,NY,10002,M137,-73.98603265,40.72005245
"Urban Assembly New York Harbor School, SLIP 7",HS,551,10 SOUTH STREET,MANHATTAN,NY,10004,M877,-73.9906002,40.7224227
Lillian Weber School of the Arts,PS,84,32 West 92nd Street,MANHATTAN,NY,10025,M084,-73.97965407,40.71944085
Robert Simon,PS,64,600 EAST 6th STREET,MANHATTAN,NY,10009,M064,-73.99194531,40.7128291
The East Village Community  School (EVCS),,315,610 EAST 12th STREET,MANHATTAN,NY,10009,M061,-73.99099524,40.71614025
School for Global Leaders,MS,378,145 STANTON STREET,MANHATTAN,NY,10002,M025,-73.9888429,40.7585323
Forsyth Satellite Academy,HS,458,198 FORSYTH STREET,MANHATTAN,NY,10002,M510,-73.9502957,40.7849967
"New Explorations into Science, Technology and Math High School",PS/MS,539,111 COLUMBIA STREET,MANHATTAN,NY,10002,M022,-73.95960336,40.76557985
Meyer London,PS,2,122 HENRY STREET,MANHATTAN,NY,10002,M002,-73.9881627,40.7679539
Benjamin Altman,PS,42,71 HESTER STREET,MANHATTAN,NY,10002,M042,-74.00276367,40.74336655
Elias Howe,PS,51,525 WEST 44TH STREET,MANHATTAN,NY,10036,M338,-74.00276367,40.74336655
Isador E. Ida Straus,PS,198,1700 3rd AVENUE,MANHATTAN,NY,10128,M198,-73.9893919,40.7173439
Ella Baker School,,225,317 EAST 67th STREET,MANHATTAN,NY,10065,M480,-73.9891224,40.7680257
High School for Environmental Studies,HS,400,444 WEST 56th STREET,MANHATTAN,NY,10019,M834,-73.94591554,40.7833077
Quest to Learn,,422,351 WEST 18th STREET,MANHATTAN,NY,10011,M440,-73.97378315,40.7951176
Hudson High School of Learning Technologies,HS,437,351 WEST 18th STREET,MANHATTAN,NY,10011,M440,-73.97783628,40.7816441
New Design High School,HS,543,350 GRAND STREET,MANHATTAN,NY,10002,M445,-73.96520692,40.79909355
Independence High School,HS,544,850 10TH AVENUE,MANHATTAN,NY,10019,M834,-73.9493988,40.79843
Life Sciences Secondary School,,655,320 EAST 96th STREET,MANHATTAN,NY,10128,M645,-73.9883987,40.7723831
Emily Dickinson,PS,75,735 WEST END AVENUE,MANHATTAN,NY,10025,M075,-73.95429412,40.802607
William Sherman,PS,87,160 WEST 78th STREET,MANHATTAN,NY,10024,M087,-73.98744699,40.7715543
The Bloomingdale School,PS,145,150 WEST 105th STREET,MANHATTAN,NY,10025,M145,-73.98564239,40.77489495
The Locke School of Arts and Engineering (prev The Early Childhood Discovery and Design Magnet School),PS,185,20 WEST 112th STREET,MANHATTAN,NY,10026,M185,-73.94478849,40.788629
Riverside School for Makers and Artists (PS 191),PS,191,300 W 61st St,MANHATTAN,NY,10023,M342,-73.94769675,40.79502965
Wadleigh Secondary School for the Performing & Visual Arts,HS,415,215 WEST 114th STREET,MANHATTAN,NY,10026,M088,-73.9302129,40.7970452
PS 452,PS,452,210 W 61st St,MANHATTAN,NY,10023,M191,-73.94846362,40.7937647
Manhattan Hunter Science High School,HS,541,122 AMSTERDAM AVENUE,MANHATTAN,NY,10023,M490,-73.95738572,40.8106141
Roberto Clemente,PS,38,232 EAST 103rd STREET,MANHATTAN,NY,10029,M121,-73.93896262,40.80965645
School of Authors,HS,108,1615 MADISON AVENUE,MANHATTAN,NY,10029,M108,-73.94086723,40.8213013
Jose Celso Barbosa,PS,206,508 EAST 120th STREET,MANHATTAN,NY,10035,M206,-73.9542041,40.8152265
Central Park East High School,HS,555,1573 MADISON AVENUE,MANHATTAN,NY,10029,M013,-73.9424038,40.831546
Margaret Douglas,PS,36,123 MORNINGSIDE DRIVE,MANHATTAN,NY,10027,M036,-73.9175422,40.86775075
Fred R Moore,PS,133,2121 5th AVENUE,MANHATTAN,NY,10037,M133,-73.93720384,40.8561594
Countee Cullen,PS,194,244 WEST 144th STREET,MANHATTAN,NY,10030,M194,-74.017546,40.7064257
Urban Assembly Academy for Future Leaders,IS,286,509 WEST 129th STREET,MANHATTAN,NY,10027,M043,-73.93675222,40.80651062
Wright Brothers,PS,28,475 WEST 155th STREET,MANHATTAN,NY,10032,M028,-73.9554009,40.7810138
Shorac Kappock,PS,98,512 WEST 212th STREET,MANHATTAN,NY,10034,M098,-73.9473775,40.8075799
Hudson Cliffs,PS/IS,187,349 CABRINI BOULEVARD,MANHATTAN,NY,10040,M187,-73.9493988,40.79843
The Spectrum School,PS,94,55 BATTERY PLACE,MANHATTAN,NY,10036,M276,-73.93422969,40.79930915
,PS,138,144-176 EAST 128th STREET,MANHATTAN,NY,10035,M030,-73.92626345,40.8555093
Robert F. Kennedy,PS,169,110 EAST 88th STREET,MANHATTAN,NY,10128,M169,-73.98186978,40.72364925
Neighborhood Charter School of Harlem,,100,132 W 124th STREET,MANHATTAN,NY,10027,MAKA,-73.99053131,40.72853213
Harlem Link Charter School,,329,20 WEST 112th STREET,MANHATTAN,NY,10026,M185,-73.9562682,40.8107237
Harlem Village Academy Leadership Charter School,,335,2351 1ST AVENUE,MANHATTAN,NY,10035,M045,-73.97965407,40.71944085
The Equity Project Charter School (TEP),,430,549 AUDUBON AVENUE,MANHATTAN,NY,10040,M965,-73.9122407,40.7183488
"The Earth School
",PS,364,600 East 6th Street ,Manhattan,NY,10009,M064,-73.9537697,40.7854696
Grace Church School-High School,Private,,46 Cooper Square,Manhattan,NY,10003,,-73.94828095,40.8125657
Ralph Bunche,PS,125,425 W 123rd Street,MANHATTAN,NY,,M125,-73.9508992,40.7858647
"New Explorations into Science, Technology and Math High School",PS/MS,539,111 COLUMBIA STREET,MANHATTAN,NY,10002,M022,-73.94440687,40.78915205
@ PS882,P (District 75),9,58-74 57th St,Maspeth,NY,11378,Q009,-73.9382133,40.8057614
Hunter College Elementary School,PS,998,71 East 94th Street,New York,NY,10128,,-73.95433312,40.78737796
Promise Academy 1 Upper,Charter,999,245 West 129th St,New York,NY,10027,,-73.97354455,40.7881516
School of Cooperative Technical Education,HS,645,321 East 96th Street,New York,NY,10128,M645,-74.0023976,40.7495454
DREAM Charter School,PS/MS,382,1991 2nd Avenue,NEW YORK,NY,10029,,-73.9232582,40.86612595
ABC Echo Park Early Childhood Center,Pre-K,,1841 Park Avenue,New York,NY,,,-73.9659132,40.7960722
Bellevue Day Care Center,Pre-K,,462 First Avenue,New York,NY,11016,,-73.0260495,40.7752299
Child Center of New York- Escalera Head Start,Pre-K,,169 West 87th Street,New York,NY,10024,,-74.00750162,40.7313654
Hudson Guild Children's Center,Pre-K,,459 West 26th Street,New York,NY,10001,,-73.9482546,40.803013
Nicholas Cardell Day Care Center,Pre-K,,84 Vermilyea Avenue,New York,NY,10034,,-73.97807634,40.7370074
Open Door Child Care Center,Pre-K,,820 Columbus Avenue,New York,NY,10025,,-73.943095,40.82757123
"George Washington YABC
",P (District 75),754,549 Audobon Avenue,New York,NY,10040,,-73.98744699,40.7715543
M. S. 297 (75 Morton),MS,297,75 Morton Street,New York,NY,10014,M868,-73.97843593,40.72763415
The Mickey Mantle School: 811M@149,P (District 75),811,34 West 118th Street ,New York,NY,10026,,-73.93807375,40.84144365
Annex of Manhattan Occupational Training Center,P (District 75),721,400 1st Avenue,New York,NY,10010,,-73.74537906,40.7474553
Nasry Michelen Day Care Center Inc,Pre-K,,415 W. 150th St,New York,NY,10031,,-73.83733881,40.6787674
Museum Magnet School - Historic Record MOVED,PS,191,210 West 61st Street,NYC,NY,10023,M191,-73.93689512,40.7446962
Spectrum School @361,PS,94,610 East 12th Street,NYC,NY,10009,M061,-73.81840734,40.7599781
Manhattan Alternate Learning Center @ Highbridge,PS,828,80 Audubon Avenue,NYC,NY,10032,M828,-73.909222,40.710621
P004Q @213 - Oakland Gardens,P (District 75),4,231-02 67th Avenue ,QUEENS,NY,11364,Q213,-73.80264202,40.7096425
John Adams- YABC,HS,487,101 Rockaway Blvd,Ozone Park,NY,11417,Q480,-73.86796325,40.7357734
Bard High School Early College Queens,HS,299,30-20 THOMSON AVENUE,QUEENS,NY,11101,Q735,-73.8061111,40.7833444
Flushing International High School,HS,263,144-80 BARCLAY AVENUE,QUEENS,NY,11355,Q189,-73.8394573,40.67833335
Grover Cleveland High School,HS,485,21-27 HIMROD STREET,QUEENS,NY,11385,Q485,-73.81196366,40.71037655
Hillcrest High School,HS,505,160-05 HIGHLAND AVENUE,QUEENS,NY,11432,Q505,-73.76683509,40.74505005
John F. Kennedy ,HS,721,57-12 94th STREET,QUEENS,NY,11373,Q722,-73.7387225,40.7336845
William Carr,JHS,194,154-60 17th AVENUE,QUEENS,NY,11357,Q194,-73.8212361,40.6903446
America's School of Heroes,MS,137,109-15 98th STREET,QUEENS,NY,11417,Q137,-73.9264727,40.7573471
Robert A. Van Wyck,JHS,217,85-05 144th STREET,QUEENS,NY,11435,Q217,-73.82395468,40.7584232
Nathaniel Hawthorne,JHS,74,61-15 OCEANIA STREET,QUEENS,NY,11364,Q074,-73.75623385,40.7377292
Martin Van Buren High School,HS,435,230-17 HILLSIDE AVENUE,QUEENS,NY,11427,Q435,-73.89679809,40.73464345
Arthur Ashe School,PS,161,101-33 124th STREET,QUEENS,NY,11419,Q161,-73.8478139,40.6971097
Henry Gradstein,PS,166,33-09 35th AVENUE,QUEENS,NY,11106,Q166,-73.7944015,40.7649525
John Bowne,PS,20,142-30 BARCLAY AVENUE,QUEENS,NY,11355,Q020,-73.7643612,40.6914263
Alexander Graham Bell,PS,205,75-25 BELL BOULEVARD,QUEENS,NY,11364,Q205,-73.85995307,40.6942514
Emanuel Kaplan,PS,229,67-25 51st ROAD,QUEENS,NY,11377,Q229,-73.786104,40.5931854
The Rosa Parks School,PS,254,84-40 101st STREET,QUEENS,NY,11418,Q254,-73.72972685,40.68488965
State Street,PS,32,171-11 35th AVENUE,QUEENS,NY,11358,Q032,-73.8217513,40.7498524
Saint Albans School,PS,36,187-01 FOCH BOULEVARD,QUEENS,NY,11412,Q036,-73.92994832,40.7660904
Forest Park,PS,97,85-52 85th STREET,QUEENS,NY,11421,Q097,-73.84558497,40.6708751
Goldie Maple Academy,PS/MS,333,3-65 BEACH 56th STREET,QUEENS,NY,11692,Q198,-73.88789577,40.73737175
Cambria Heights,HS,176,120-45 235th STREET,QUEENS,NY,11411,Q176,-73.91141884,40.75683675
East-West School of International Studies,IS,281,46-21 COLDEN STREET,QUEENS,NY,11355,Q237,-73.9030015,40.7056605
Albert Shanker School for Visual and Performing Arts,IS,126,31-51 21st STREET,QUEENS,NY,11106,Q126,-73.85153857,40.7231289
Robert H. Goddard High School of Communication Arts and Technology,HS,308,138-30 LAFAYETTE STREET,QUEENS,NY,11417,Q202,-73.8871907,40.7282391
The Walter Crowley Intermediate School,IS,5,50-40 JACOBUS STREET,QUEENS,NY,11373,Q005,-73.8744261,40.7408886
William Cullen Bryant High School,HS,445,48-10 31st AVENUE,QUEENS,NY,11103,Q445,-73.8436244,40.7156436
Ridgewood,IS,93,66-56 FOREST AVENUE,QUEENS,NY,11385,Q093,-73.9287951,40.7537021
Russell Sage,MS,190,68-17 AUSTIN STREET,QUEENS,NY,11375,Q190,-73.87442583,40.755279
Maspeth High School,HS,585,54-40 74TH STREET,QUEENS,NY,11373,Q585,-73.77869431,40.782419
Newtown High School,HS,455,48-01 90th STREET,QUEENS,NY,11373,Q455,-73.75323704,40.6555914
School in the Gardens,PS,101,2 RUSSELL PLACE,QUEENS,NY,11375,Q101,-73.73472834,40.6526328
Dutch Kills,PS,112,25-05 37th AVENUE,QUEENS,NY,11101,Q112,-73.9261364,40.7399357
Christa Mcauliffe,PS,149,93-11 34th AVENUE,QUEENS,NY,11372,Q149,-73.7950273,40.7837143
Bay Terrace,PS,169,18-25 212th STREET,QUEENS,NY,11360,Q169,-73.8748808,40.75693605
Brookfield,PS,181,148-15 230th STREET,QUEENS,NY,11413,Q181,-73.7596248,40.6651991
William Haberle,PS,195,253-50 149th AVENUE,QUEENS,NY,11422,Q195,-73.87387059,40.75354055
Maurice A. Fitzgerald,PS,199,39-20 48th AVENUE,QUEENS,NY,11104,Q199,-73.8439465,40.7256061
Clearview Gardens,PS,209,16-10 UTOPIA PARKWAY,QUEENS,NY,11357,Q209,-73.9587332,40.7445601
Early Childhood Magnet School of the Arts,PS,228,32-63 93rd STREET,QUEENS,NY,11369,Q228,-73.87978625,40.74592705
,PS,251,144-51 ARTHUR STREET,QUEENS,NY,11413,Q251,-73.82328331,40.7360837
,PS,280,34-20 94TH STREET,QUEENS,NY,11372,Q280,-73.90611821,40.7711519
The Academy for Excellence through the Arts,PS,303,108-55 69th AVENUE,QUEENS,NY,11375,Q003,-73.811352,40.7253677
Robert F. Wagner,PS,78,48-09 CENTER BOULEVARD,QUEENS,NY,11109,Q868,-73.85580288,40.70851925
Elmhurst,PS,89,85-28 BRITTON AVENUE,QUEENS,NY,11373,Q089,-73.8851651,40.7499509
Paul Klapper,PS,219,144-39 GRAVETT ROAD,QUEENS,NY,11367,Q219,-73.82616639,40.75457425
Steinway,PS/MS,84,22-45 41st STREET,QUEENS,NY,11105,Q084,-73.72577243,40.7454423
Robert F. Kennedy Community High School,HS,670,75-40 PARSONS BOULEVARD,QUEENS,NY,11366,Q707,-73.72887033,40.7445126
Metropolitan Expeditionary Learning School,MS/HS,167,91-30 METROPOLITAN AVENUE,QUEENS,NY,11375,Q686,-73.73125507,40.7586372
Renaissance Charter School,Charter,705,35-59 81ST STREET,QUEENS,NY,11372,Q885,-73.8507651,40.66538265
The Active Learning Elementary School,PS,244,137-20 FRANKLIN AVENUE,QUEENS,NY,11355,Q244,-73.8518455,40.7365
Queens Children's Psychiatric Center,PS,23,74-03 COMMONWEALTH BOULEVARD,QUEENS,NY,11426,QAPM,-73.887184,40.7540687
"Queens High School of Teaching, Liberal Arts and the Sciences",HS,566,74-20 COMMONWEALTH BLVD,QUEENS,NY,11426,Q566,-73.9260922,40.7522028
The North Hills School,PS,221,57-40 MARATHON PARKWAY,QUEENS,NY,11362,Q221,-73.7905733,40.708753
Lindenwood,PS,232,153-23 83rd STREET,QUEENS,NY,11414,Q232,-73.86815027,40.7374086
Edward Mandel,PS,220,62-10 108th STREET,QUEENS,NY,11375,Q220,-73.8085459,40.724521
Joseph Pulitzer,IS,145,33-34 80th STREET,QUEENS,NY,11372,Q145,-73.9149594,40.706955
Jackson Heights,PS,69,77-02 37th AVENUE,QUEENS,NY,11372,Q069,-73.8654849,40.7489511
Eastwood,PS,95,179-01 90th AVENUE,QUEENS,NY,11432,Q095,-73.72818609,40.7454986
Clement C. Moore,PS,13,55-01 94th STREET,QUEENS,NY,11373,Q013,-73.8071263,40.7265522
@ J.H. 168 (Parsons Ed. Complex)- D75 MAIN SITE,PS,255,158-40 76th ROAD,QUEENS,NY,11366,Q168,-73.80684057,40.69500605
Learners and Leaders,PS,305,378 SENECA AVENUE,QUEENS,NY,11385,Q245,-73.8507651,40.66538265
Pioneer Academy,PS,307,40-20 100TH STREET,QUEENS,NY,11368,Q260,-73.79969111,40.75555975
,PS/IS,266,74-10 COMMONWEALTH BOULEVARD,QUEENS,NY,11426,Q266,-73.8395309,40.69665975
,PS,154,75-02 162nd STREET,QUEENS,NY,11366,Q154,-73.9139574,40.7617649
Talfourd Lawn Elementary School,PS,50,143-26 101st AVENUE,QUEENS,NY,11435,Q050,-73.8694786,40.7491675
Lindenwood,PS,232,153-23 83rd STREET,QUEENS,NY,11414,Q232,-73.93269491,40.7566166
Thomas A Dooley,PS,107,167-02 45th AVENUE,QUEENS,NY,11358,Q107,-73.9122996,40.75971455
Horace Mann,PS,90,86-50 109th STREET,QUEENS,NY,11418,Q090,-73.81316077,40.7102367
,PS,70,30-45 42nd STREET,QUEENS,NY,11103,Q070,-73.84558497,40.6708751
Louis Armstrong,IS,227,32-02 JUNCTION BOULEVARD,QUEENS,NY,11369,Q227,-73.8606927,40.7341914
Oliver W. Holmes,IS,204,36-41 28th STREET,QUEENS,NY,11106,Q204,-73.7494753,40.6041718
Horace Greeley,IS,10,45-11 31ST AVE,QUEENS,NY,11103,Q010,-73.8541913,40.740846
J. Keld / Briarwood School,PS,117,85-15 143rd STREET,QUEENS,NY,11435,Q117,-73.867037,40.7492011
Robert H. Goddard,MS,202,138-30 LAFAYETTE STREET,QUEENS,NY,11417,Q202,-73.86286179,40.7420327
The Horace Harding School,PS,206,61-02 98th STREET,QUEENS,NY,11374,Q206,-73.89726148,40.69695415
Brian Piccolo,MS,53,10-45 NAMEOKE STREET,QUEENS,NY,11691,Q053,-73.87827629,40.7331068
Fairview,PS,14,107-01 OTIS AVENUE,QUEENS,NY,11368,Q014,-73.9276475,40.7458607
Marino Jeantet,PS,19,98-02 ROOSEVELT AVENUE,QUEENS,NY,11368,Q019,-73.85630021,40.7558024
Leonardo Da Vinci,IS,61,98-50 50th AVENUE,QUEENS,NY,11368,Q061,-73.90391892,40.7163344
Cambridge,PS,68,59-09 SAINT FELIX AVENUE,QUEENS,NY,11385,Q068,-73.87853902,40.7358832
Bayview,PS,102,55-24 VAN HORN STREET,QUEENS,NY,11373,Q102,-73.8744261,40.7408886
,PS,110,48-25 37th Street,QUEENS,NY,11101,Q841,-73.9025882,40.7003824
Louis Armstrong,PS,143,34-74 113th STREET,QUEENS,NY,11368,Q143,-73.90824172,40.712617
Maspeth Elem,PS,153,60-02 60th LANE,QUEENS,NY,11378,Q153,-73.8714978,40.74336015
Elm Tree Elementary School,PS,211,86-37 53RD AVENUE,QUEENS,NY,11373,,-73.92799813,40.74174895
International High School for Health Sciences,HS,236,48-01 90th STREET,QUEENS,NY,11373,Q455,-73.92946443,40.74347465
Ramon Suarez School,PS,239,17-15 WEIRFIELD STREET,QUEENS,NY,11385,Q239,-73.81098577,40.76170185
A.C.E. Academy for Scholars at the Geraldine Ferraro Campus,PS,290,55-20 METROPOLITAN AVENUE,QUEENS,NY,11385,Q290,-73.78413432,40.75999965
Corona Arts and Sciences Academy,,311,45-10 94TH STREET,QUEENS,NY,11373,Q311,-73.80899584,40.7920602
Queens Vocational and Technical High School,HS,600,37-02 47th AVENUE,QUEENS,NY,11101,Q600,-73.78971274,40.7648014
Aviation Career & Technical Education High School,HS,610,45-30 36th STREET,QUEENS,NY,11101,Q610,-73.73243977,40.7314569
Thomas Jefferson,PS,22,153-33 SANFORD AVENUE,QUEENS,NY,11355,Q022,-73.71348233,40.7416042
,PS,130,200-01 42nd AVENUE,QUEENS,NY,11361,Q130,-73.72155866,40.74962955
Alfred J. Kennedy,PS,193,152-20 11th AVENUE,QUEENS,NY,11357,Q193,-73.74537906,40.7474553
World Journalism Preparatory: A College Board School,HS,285,34-65 192nd STREET,QUEENS,NY,11358,Q025,-73.85676825,40.6820509
Winchester,PS,18,86-35 235th COURT,QUEENS,NY,11427,Q018,-73.81152976,40.6655398
Irwin Altman Middle School 172,,172,81-14 257th STREET,QUEENS,NY,11004,Q172,-73.84736972,40.6846193
Castlewood,PS,186,252-12 72nd AVENUE,QUEENS,NY,11426,Q186,-73.8165657,40.6754783
The Carl Ullman School,PS,213,231-02 67th AVENUE,QUEENS,NY,11364,Q213,-73.74901241,40.6072732
Joseph P. Addabbo,PS,64,82-01 101st AVENUE,QUEENS,NY,11416,Q064,-73.82485383,40.5844494
Osmond A Church,PS,124,129-15 150th AVENUE,QUEENS,NY,11420,Q124,-73.83390383,40.6948875
Elizabeth Blackwell,MS,210,93-11 101st AVENUE,QUEENS,NY,11416,Q210,-73.77560182,40.67488365
Virgil I. Grissom,MS,226,121-10 ROCKAWAY BOULEVARD,QUEENS,NY,11420,Q226,-73.80362494,40.7094183
,PS,253,1307 CENTRAL AVENUE,QUEENS,NY,11691,Q253,-73.852514,40.729775
Scholars' Academy,MS/HS,323,320 BEACH 104TH STREET,QUEENS,NY,11694,Q180,-73.79965666,40.6881603
Richmond Hill High School,HS,475,89-30 114th STREET,QUEENS,NY,11418,Q475,-73.8613691,40.7208185
Catherine & Count Basie Middle School 72,,72,133-25 GUY R BREWER BOULEVARD,QUEENS,NY,11434,Q072,-73.852514,40.729775
,PS,86,87-41 PARSONS BOULEVARD,QUEENS,NY,11432,Q086,-73.83761887,40.7228138
Stephen A. Halsey,JHS,157,63-55 102ND STREET,QUEENS,NY,11374,Q157,-73.77431901,40.6797714
Walter Francis Bishop,PS,160,109-59 INWOOD STREET,QUEENS,NY,11435,Q160,-73.8450937,40.7297049
William Sidney Mount,PS,174,65-10 DIETERLE CRESCENT,QUEENS,NY,11374,Q174,-73.79853273,40.71630525
The Lynn Gross Discovery School,PS,175,64-35 102nd STREET,QUEENS,NY,11374,Q175,-73.7669235,40.6612514
Grand Central Parkway,PS,196,71-25 113th STREET,QUEENS,NY,11375,Q196,-73.75775031,40.7208169
,PS,354,126-10 BEDELL STREET,QUEENS,NY,11434,Q030,-73.7811286,40.7004207
Forest Hills High School,HS,440,67-01 110th STREET,QUEENS,NY,11375,Q440,-73.7366265,40.6750032
Thomas A. Edison Career and Technical Education High School,HS,620,165-65 84th AVENUE,QUEENS,NY,11432,Q620,-73.7561475,40.7025278
,PS,52,178-37 146th TERRACE,QUEENS,NY,11434,Q052,-73.92241733,40.7681585
The Bellaire School,PS,135,207-11 89th AVENUE,QUEENS,NY,11427,Q135,-73.86875903,40.75600115
,PS/IS,268,92-07 175th STREET,QUEENS,NY,11433,Q268,-73.916121,40.7802536
The Gordon Parks School,PS,270,233-15 MERRICK BOULEVARD,QUEENS,NY,11422,Q270,-73.87161651,40.76509915
New choice ES at Q892,PS,360,199-10 112th AVENUE,QUEENS,NY,11412,Q892,-73.9094555,40.7786682
Henry David Thoreau,PS,17,28-37 29th STREET,QUEENS,NY,11102,Q017,-73.926543,40.7657704
Harry T. Stewart Sr.,PS,92,99-01 34th AVENUE,QUEENS,NY,11368,Q292,-73.93269491,40.7566166
Mamie Fay,PS,122,21-21 DITMARS BOULEVARD,QUEENS,NY,11105,Q122,-73.9595696,40.7429152
The Aerospace and Science Academy,PS,127,98-01 25th AVENUE,QUEENS,NY,11369,Q127,-73.92241733,40.7681585
The Steinway,IS,141,37-11 21st AVENUE,QUEENS,NY,11105,Q141,-73.87194738,40.76167495
Energy Tech High School,HS,258,36-41 28th STREET,QUEENS,NY,11106,Q204,-73.93303187,40.76538245
Hunters Point Community Middle School,,291,1-50 51ST AVENUE,QUEENS,NY,11101,Q404,-73.9368787,40.7514099
The 30th Avenue School (G&T Citywide),,300,28-37 29th STREET,QUEENS,NY,11102,Q017,-73.778169,40.7416991
East Elmhurst Community School,,329,26-25 97TH STREET,QUEENS,NY,11369,Q329,-73.9122407,40.7183488
Long Island City High School,HS,450,14-30 BROADWAY,QUEENS,NY,11106,Q452,-73.72155866,40.74962955
Newcomers High School,HS,555,28-01 41st AVENUE,QUEENS,NY,11101,Q450,-73.9595696,40.7429152
P004Q @P179Q,P (District 75),4,196-25 PECK AVENUE,QUEENS,NY,11365,Q179,-73.90218598,40.756715
Walter Reed,PS,9,58-74 57th STREET,QUEENS,NY,11378,Q009,-73.7531994,40.6761786
PS 224@186,P (District 75),224,252-12 72nd Avenue,Queens,NY,11426,Q186,-73.9226542,40.7636315
The Riverview School 277Q,PS,277,1-50 51ST AVENUE,QUEENS,NY,11101,Q404,-73.9042471,40.7452703
Academy of the City Charter School,CS,359,31-29 60th STREET,QUEENS,NY,11377,QABE,-73.9122996,40.75971455
Merrick Academy - Queens Public Charter School,CS,704,136-25 218th STREET,QUEENS,NY,11413,QACS,-73.74969044,40.68198785
Adventureland Child Care Center,Pre-K,,32-04 31st Avenue,Queens,NY,11106,,-73.75623385,40.7377292
Child Center of New York- Woodside,Pre-K,,60-02 Roosevelt Avenue,Queens,NY,11377,,-73.8601934,40.7472338
Horace Greeley,IS,10,45-11 31ST AVE,QUEENS,NY,11103,Q010,-73.801098,40.7101565
,,132,132-15 218th Street,Queens,NY,11413,,-73.737112,40.7287144
PS 224@205,P (District 75),224,75-25 BELL BOULEVARD,Queens,NY,11364,Q205,-73.7529167,40.7005532
The Riverview School @ Q311,P (District 75),277,98-11 44TH AVENUE,Queens,NY,11368,Q311,-74.0867946,40.6108161
Bright Beginnings,Pre-K,,86-25 162nd St ,Queens,NY,11432,,-74.14554396,40.5457534
Lifeline Center for Child Development ,PS,23,80-09 Winchester Blvd,Queens Village,NY,11427,QLCC,-74.0811612,40.62041955
@P 822 Q,P (District 75),811,114-36 202nd Street,St. Albans,NY,11412,Q822,-74.19004319,40.5915313
Concord High School,HS,470,109 RHINE AVENUE,STATEN ISLAND,NY,10304,R470,-74.163617,40.5365557
Myra S. Barnes,IS,24,225 CLEVELAND AVENUE,STATEN ISLAND,NY,10308,R024,-74.1045876,40.60913615
Berta A. Dreyfus,IS,49,101 WARREN STREET,STATEN ISLAND,NY,10304,R049,-74.1420754,40.6344466
The Carteret School,PS,26,4108 VICTORY BOULEVARD,STATEN ISLAND,NY,10314,R026,-74.1859247,40.5233111
Henry M. Boehm,PS,55,54 OSBORNE STREET,STATEN ISLAND,NY,10312,R055,-74.148644,40.63237
The Michael J. Petrides School,PS,80,715 OCEAN TERRACE,STATEN ISLAND,NY,10301,R880,-74.0699578,40.59795975
Port Richmond High School,HS,445,85 ST JOSEPHS AVENUE,STATEN ISLAND,NY,10302,R445,-74.15922108,40.5817018
Elias Bernstein,IS,7,1270 HUGUENOT AVENUE,STATEN ISLAND,NY,10312,R007,-74.1519304,40.5473979
Margaret Emery-Elm Park,PS,21,168 HOOKER PLACE,STATEN ISLAND,NY,10303,R021,-74.2224415,40.511884
Francis J. Murphy Jr.,PS,39,71 SAND LANE,STATEN ISLAND,NY,10305,R039,-74.1511058,40.5639897
The Richard H. Hungerford School @JPS,P (District 75),721,100 Essex Drive,STATEN ISLAND,NY,10314,R722,-74.09529789,40.64093215
Shirlee Solomon,PS,8,112 LINDENWOOD ROAD,STATEN ISLAND,NY,10308,R008,-74.16451726,40.6204358
"ALC @ Mt. Loretto, Brooklyn West Alternate Learning Center",JHS,,6581 Hylan Blvd ,Staten Island,NY,10309,R825,-74.08182966,40.6454497
,PS,37,15 FAIRFIELD STREET,STATEN ISLAND,NY,10308,R840,-74.0906971,40.6026044
Robert Randall/ 373@PS40,PS,373,91 henderson avenue,STATEN ISLAND,NY,10301,R040,-74.0919923,40.6028493
Staten Island School of Civic Leadership,PS,861,280 REGIS DRIVE,STATEN ISLAND,NY,10314,R861,-74.0793021,40.6397315
Curtis High School,HS,450,105 HAMILTON AVENUE,STATEN ISLAND,NY,10301,R450,-74.06933732,40.61316115
Naples Street Elementary School,PS,9,1055 TARGEE STREET,STATEN ISLAND,NY,10304,R048,-74.0793021,40.6397315
William G. Wilcox,PS/MS,48,1050 Targee Street,Staten Island,NY,10304,R071,-74.1567566,40.6316209
Fort Hill Collaborative Elementary School,PS,10,80 MONROE AVENUE,STATEN ISLAND,NY,10301,R016,-74.1076261,40.6281456
M. L. Lindemeyer,PS,13,191 VERMONT AVENUE,STATEN ISLAND,NY,10305,R013,-74.21796231,40.54136777
John J. Driscoll,PS,16,80 MONROE AVENUE,STATEN ISLAND,NY,10301,R016,-74.1586333,40.5927574
Thomas C. Brown,PS,44,80 MAPLE PARKWAY,STATEN ISLAND,NY,10303,R044,-74.16087712,40.58305405
John Tyler,PS,45,58 LAWRENCE AVENUE,STATEN ISLAND,NY,10310,R045,-74.14824007,40.5544317
The Kathleen Grimm School for Leadership and Sustainability,PS,62,644 Bloomingdale Road,STATEN ISLAND,NY,10309,R062,-74.07703182,40.6208626
Rocco Laurie,IS,72,33 FERNDALE AVENUE,STATEN ISLAND,NY,10314,R072,-73.496385,40.821727
,PS,373,77 Marsh Avenue,Staten Island,NY,10314,R373,-74.16062536,40.58344698
Great Kills High School (@843),PS,37,110 Shafter Avenue,Staten Island,NY,10308,R843,-74.1482644,40.55459017
The Hungerford School - Main Site,P (District 75),721,155 Tompkins Avenue.   ,"Staten Island, ",NY,10304,,-74.07705879,40.62104714
,PS,256,525 CONVENT ROAD,SYOSSET,NY,11791,L001,-73.48883506,40.82148608
@ 151Q - D75 SATELLITE SITE,P (District 75),255,50-05 31st Avenue,Woodside,NY,11377,,-73.90822809,40.75775646
430@IS349 The Equity Project Charter School (TEP),,430,153 Sherman Avenue ,Brooklyn,NY,10034,,-73.92293036,40.86451505
Melrose School,PS/MS,29,758 Courtlant AVE,BRONX,NY,10451,X029,-73.91684143,40.82180732
Bronx Theatre High School,HS,546,99 Terrace View Ave,BRONX,NY,10463,X475,-73.91270493,40.877557
Atmosphere Academy,JHS,460,22 Marble Hill Avenue,Bronx,NY,10463,,-73.91028792,40.8754102
Samuel C. Barnes,PS,54,195 SANFORD ST,BROOKLYN,NY,11205,K054,-73.87436744,40.90942718
P.O. Michael J. Buczek,PS,48,4360-78 U.S 9,MANHATTAN,NY,10033,M048,-73.9335421,40.8535278
Hubert H. Humphrey,PS,57,140 Palma DR,STATEN ISLAND,NY,10304,R057,-74.08354407,40.61126787
Mary D. Carter,PS,151,50-05 31st Avenue,QUEENS,NY,11377,Q151,-73.90831392,40.75776459